name;address;postalcode;city;website;contact_person;contact_person_email;phone_number;description;looking_for
Exsited bv;Blokkestraat 41B;8550;Zwevegem;https://exsited.be;Gregory Vanhoucke;;473576999;Exsited is een design geori‰nteerd webbureau met een hele sterke technische achtergrond. We innoveren voortdurend om onze klanten de beste websites of webshops te kunnen aanbieden. Onze oplossingen moeten renderen onze klanten, wij leveren resultaatgericht webdesign.;"Front-end developers
Back-end developers
Full stack developers"
Indie Group BV;Kortrijkstraat 75;8550;Zwevegem;https://www.indiegroup.be;Piet Santy;;473835291;"Indie Group is gespecialiseerd in online ondernemen. Dat wil zeggen dat we bedrijven helpen bij online en digitaal ondernemen en dat reeds meer dan 20 jaar.
Onze kennis en ervaring is de afgelopen jaren dusdanig ge‰volueerd dat we met gepaste trots kunnen claimen alle facetten te beheersen die nodig zijn voor het ontwikkelen van een succesvol online project: online strategie & concept, technologische ontwikkeling & design en online marketing. Indie Group heeft deze drie expertises uitgewerkt in haar dienstverlening onder de noemers Plan, Build en Boost.
Indie Group is een proactieve partner. We denken mee met de klant en willen samen bouwen aan succesverhalen. We willen de business van de klant begrijpen en samen toegevoegde waarde cre‰ren voor hun organisatie. Samen denken, samen uitvoeren en samen groeien.
Tenslotte vervult Indie Group een inspirerende rol voor iedereen die het maximum wil halen uit online ondernemen. We houden jou op de hoogte van wat er leeft en heerst binnen het online ondernemerslandschap via ons magazine Indie Insights, nieuwsbrieven, video's, blogs en events.";"Je komt terecht in een toffe, ambitieuze en enthousiaste bende die elke dag opnieuw het verschil willen maken voor klanten zoals Duvel Moortgat, New paris Londres, Renson, Colora, Baunat, ...

Om dat verschil te blijven maken zijn op we op zoek naar:
- Webontwikkelaars backend
- Front-end ontwikkelaars
- Data analisten
- Custom ontwikkelaars"
Sint Catharinacollege Geraardsbergen;Collegestraat 11;9500;Geraardsbergen;www.sccg.be;Stefaan De Decker;;0477/524190;Educatieve instelling;office 365 security en algemene security audit ( netwerk, wifi, enz )
PwC Belgium;Woluwedal 18;1932;Brussels;https://www.pwc.be/en/careers/students-graduates.html;Lauranne La Rose;;473645332;"We guide. We support. You grow.
We go the distance. Not only for our clients, but also for our people. At PwC, you?re in the driver's seat on your own journey. We guide and support you at every turn. Whether you're looking for an internship or a great career start, we?re here to steer you in the right direction.
The world?s evolving at an unprecedented pace, and we?re here to help you navigate the road to your future. Just as we help clients meet their challenges head-on to stay ahead of the curve, we guide you along your career path so you can grow in a valuable and sustainable way. How? Through coaching, continuous learning, expert colleagues, flexibility, cutting-edge technology and the freedom to evolve. So together we can impact others in a meaningful way.

Take the journey with PwC, your career co-pilot, and discover the destinations your talent can take you! Visit www.careers.pwc.be and apply now.";"PwC Advisory?s a roadmap of possibilities, and you?re in the driver?s seat. Where you want to make an impact is always up to you. With the full support of our Advisory teams, you?ll delve into the inner workings of companies to find the best solutions for any challenge they might have. From the excitement of Deals to the complexities of Consulting and the fascinating realm of risks and threats in Forensics, you?ll help clients build trust and maintain their competitive edge, today and into the future. Now that?s making a difference.
"
Wax Interactive;Kortrijksesteenweg 62a;9830;Sint-Martens-Latem (Regio Gent);https://www.wax-interactive.com/;Wim Hoebeke;;32497058487;Wax Interactive is deel van de SQLI group, een internationale speler die zich inzet op het bepalen van digitale oplossingen en strategie voor hun klanten. We zijn actief in websites, app development, e-commerce oplossingen en experience websites. Naast onze development activiteiten, hebben we ons eigen UX, UI, SEO, SEA, CRO, CM, CM teams. Je kan een stage bekomen bepaald op 1 of cross meerdere activiteiten !;"We zoeken iemand die gemotiveerd en leergierig is, bereid is mee te werken aan proof-of-concepts voor R&D projecten en wil meedraaien bij de opzet van projecten voor klanten met grote visibiliteit.
Bij ons zal je de nodige kennis opdoen om je kennis bij te schaven en om te zetten naar de werkvloer, met de kans bij ons een vast deel van het team te worden !
De technologie die we gebruiken is: React, VueJS, Yarn, Node, Bootstrap, Symfony, Drupal, Magento.
We voorzien de nodige training en begeleiding zodat je vlot van start kan, en de kansen hebt bij te leren !"
CodeKick;Bruggestraat 137;8820;Torhout;codekick.be;Anthony Claeys;;+32 486 973 108;"Bij CodeKick zul je meewerken aan een commerci‰le web applicatie dat reeds in gebruik is bij meerdere klanten. Voor deze applicatie zul je in samenspraak een nieuwe module ontwikkelen. Deze module zal intern en door onze klanten gebruikt worden. Het doel van deze module is om de communicatie tussen specifieke ontwikkelaanvragen te stroomlijnen.

Het project werd ontwikkeld met de .NET stack (ASP.NET MVC, Entity Framework ...) en maakt gebruik van AngularJS als frontend. Alle live-omgevingen van klanten werken op Windows Azure. Je zult ook gebruik maken van externe API?s om diensten te koppelen, zoals MailChimp/Jira etc.

We zijn een jong team dat blijft groeien en leren. Iedereen in het team kan zijn mening uitspreken over problemen of idee‰n. Zo blijven we alert en kunnen we eventuele problemen vroeg opsporen.";"We zijn opzoek naar een student die flexibel is en ijverig is om bij te leren. Je werkt graag in team en houd van een uitdaging.

Als ‚‚n van de volgende technologie‰n jou wel aanspraakt dan is deze stage misschien wel iets voor jouw: C#, ASP.NET MVC, Entity Framework, AngularJS, HTML & CSS, SQL, Windows Azure ..."
Qite;Overzet 16a;9000;Gent;www.qite.be;Laura Van Bellinghen;;473609574;"Qite staat voor Digital Empowerment, een partnership waarbij wij onze klanten begeleiden ‚n versterken in al hun digitale projecten:

- Web & software development
- E-commerce & customer experience
- Automatisaties & integraties
- Mobile applications & hosting
- Online marketing & marketing automation";Hou je van innovatie en vernieuwende technologie‰n? Gaat je voorkeur uit naar een rol als full stack developer? Heb je interesse in .NET, Angular, React, Azure,... Dan ben je bij Qite aan het juiste adres! Het gebruik van nieuwe technologie‰n  en kwalitatieve code staan hier centraal en zo evolueert het team voortdurend mee. Verder hechten we ontzettend veel belang aan een leuke sfeer op kantoor. Ben je een teamspeler? Bij Qite zien we jou vanaf de eerste dag als 'part of our team'. Speel 's middags een potje kicker met ons, eet samen met je collega's een burger op vrijdag, ga mee op teambuilding, ... Je zal je hier ongetwijfeld zeer snel thuis voelen!
Numble;Veldkant 35C;2550;Kontich;https://www.numble.be/;Nicola Nauwynck;;32474841813;"Numble is een dynamisch en snelgroeiend bedrijf met kantoren in Gent en Kontich. We hebben een hele hoop passie en talent verzameld waarbij al onze werknemers met elkaar verbonden zijn door een gedeelde passie voor digitale innovatie ‚n het doel om kwaliteit op te leveren. We zijn voortdurend op zoek naar geschikte profielen om onze rangen te versterken om zo mee te werken aan in-house projecten!

Buiten het werk, dragen we de onderliggende cultuur ook hoog in het vaandel. We beschouwen onszelf meer als vriendengroep dan collega?s. We organiseren regelmatige leuke evenementen zoals team-etentjes, ons jaarlijkse team weekend, voetbal, LAN-parties, hamburgerdag,... om dit gevoel aan te sterken.";"Creative .NET / JS Wizard
We maken gebruik van .NET web api?s en JavaScript frontend frameworks om de business oplossingen van de toekomst vorm te geven. Door integraties met externe systemenen centraal te stellen zorgen we voor de automatische verwerking van grote hoeveelheden data. Dit gecombineerd met een op maat gemaakte visuele interface zorgt er voor dat ook jij kan meewerken aan zowel backend als frontend oplossingen.

Creative Umbraco Wizard
We gebruiken Umbraco, gekend als het gebruiksvriendelijkste .NET content management systeem, om grootschalige content websites te ontwikkelen waarbij integraties met externe systemen centraal staan. Zo ontwikkelen we voor grote websites als Sport Vlaanderen, Recupel, Qteam, ?"
Skedify nv;Zuiderlaan 1-3 bus 5;9000;Gent;skedify.me;Karen de Vlieger;;479540000;"Skedify is a tech company based in Gent. Our mission is simple. We enable companies to offer their customers the ability to schedule an appointment online, directly with the right advisor, by offering Omni-channels.

Skedify is a best-in-class SaaS customer appointment scheduling solution, enabling a frictionless experience for both customers and advisors.

Our focus is mature organizations with a large distribution network such as banks, insurance companies, travel agencies, health insurance, and much more.

Our team was created in 2014 and in the last couple of years, we've taken our first international steps.

We are looking for passionate employees to fulfill this ambition together with us.";"Experienced DevOps Engineer: DevOps engineer: cloud architecture and infrastructure, deployment, performance
Experienced Full-stack JavaScript Developer: Full stack JavaScript development: React & Node.JS
Experienced Full-stack Software Engineer: Full stack application development: Laravel, JavaScript, Node.JS, Architecture.
Experienced Back-end Software Engineer: Back-end development: PHP (Laravel), Node.js, MySQL"
DMS Communications;Vaartdijkstraat 19D;8200;Brugge;www.dms.be;Steven Dujardin;;50402000;"D|M&S Online te Brugge: Maakt van je website een sterke marketingtool !

Ben je toe aan een nieuwe website of wil je je online communicatie een boost geven om meer leads te genereren? D|M&S Online helpt je je digitale strategie te finetunen en je organisatie online sterker te profileren.

D|M&S Online ontwerpt en ontwikkelt websites op maat: van budgetvriendelijke Click&Go sites tot complete online platformen. Drupal and Laravel.

Check this out: https://www.dms.be/digital-communication";"Ben jij een digital native die zich wil smijten in de online communicatie? Als frontend developer/designer van (mobile) platforms en/of apps. Of liever als backend ICT-specialist. Drupal and Laravel.

Binnen ons web & mobile team krijg je alle ruimte om jezelf te bewijzen en je skills verder te finetunen. Je werkt dan ook onder begeleiding van onze senior developers en wordt direct mee ingeschakeld in boeiende projecten."
Dedecker consulting;Steenweg op Aalst 41;9620;Zottegem;www.dedeckerconsulting.be;Koen Dedecker;;485725370;Dedecker consulting voorziet zelfstandigen en KMO's van advies en oplossingen in hun zoektocht naar een digitale manier van werken. Door te vertrekken van een probleem zoeken we samen met de klant naar een effici‰nte oplossing om zijn probleem aan te pakken.;Wij zijn op zoek naar iemand die kan helpen met het uitbouwen van enkele integraties tussen bestaande applicaties, alsook het ontwikkelen van een volledig nieuwe webapp. De opdracht geeft veel ruimte voor eigen inbreng. We zoeken iemand die niet alleen het technische aspect op zich kan nemen, maar ook over de nodige assertiviteit beschikt om rechtstreeks contact met de klant op te nemen waar nodig.
Getflights | Groupflights;Gistelsesteenweg 676;8200;Brugge;groupflights.com;Pieterjan Carly;;487462902;"Wij zijn een 100% Belgische Vliegtuigticket Broker, waar wij voornamelijk aanbieder van vliegtuig tickets, charter vluchten en prive jets zijn voor zakenreis bureaus, tour operators, reisagentschappen, MICE kantoren, .... 
Van enkele reizigers tot grote groepen van duizenden reizigers.";"Front-end developers die ge‹nteresseerd zijn in moderne front-end frameworks, het werken met Typescript, Websockets, HTML5/CSS3, en moderne build tools.

Back-end developers die ge‹nteresseerd zijn in Reactive Programming en PHP op een moderne manier willen gebruiken (Symfony, ReactPHP, RatchetPHP, PHP8) in combinatie met MariaDB, SQLite en Redis.

Mensen met interesse in de luchtvaart en/of reizen zullen naast het developer werk ook zeker aan hun trekken komen."
Be-Mobile;Kardinaal Mercierlaan 1A;9090;Melle;https://www.be-mobile.com/;Delphine De Groote;;486206990;"While the need for mobility of people and goods keeps growing, the capacity is getting scarcer by the minute. Building new infrastructure is not a durable or cost-effective solution, but then what is? The solution is Total Traffic Management.


Be-Mobile, headquartered in Ghent, pioneers in Smart Mobility Solutions on an international level. We offer advanced solutions to measure and manage the traffic flows in order to put travelers, cities, road authorities, parking operators and logistics companies all around the world in control of their mobility processes.";"Knowledge is key at Be-Mobile. Sharing knowledge and continuous learning are two important values for us. Therefore, we always make our well-prepared internships very interesting and challenging, involving a two-way evaluation: not only do we assess how much you have learned from us, but also what we have learned from you. 

R&D Department (Frontend, Backend, DevOps, GIS)
Our R&D Department develops in cutting-edge technologies such as Docker, Golang, Vuejs, Kafka, Kubernetes. Big Data needs fancy databases: we use MongoDB and Elastic Search. Don?t let these technologies scare you off, there are about 40 tech experts who have your back!

Check more internship opportunities on https://careers.be-mobile.com/"
In The Pocket;Sassevaartstraat 46/401;9000;Gent;www.inthepocket.com;Laura Despiegelaere;;+32 9 234 34 25;"As Europe?s finest digital product studio, In The Pocket develops digital products that make people happy and businesses grow. From strategy to product launch and beyond, In The Pocket works in strategic partnerships with companies that take their digital future seriously.

With a talented in-house team of over 130 strategists, designers and engineers, it possesses every skill to turn your digital business strategy into an actual roadmap and product success. Since its founding, it has created over 500 digital products and services for brands like Payconiq by Bancontact, Barco, Colruyt, Groupe ADP, BNP Paribas, BMW & SD Worx. In doing so, the company has acquired an extensive amount of knowledge about mobile, web & cloud, AR & VR and machine learning. Every day millions of people use our products to pay, travel, work or read the news.

Launched in 2010 as a mobile agency, we quickly shifted to become Belgium?s finest Digital Product Studio. From strategy to product launch and beyond, we work in strategic partnerships with companies that take their digital future seriously.";"At In The Pocket, we like to operate  in the sweet spot between technology, design and business. We?re open-minded and like to learn something new every day. We're united by a passion to create best-in-class digital products. 

In The Pocket is organised in autonomous teams consisting of developers, designers and product managers. By being part of one and the same team, they can develop a product from start to finish. Because every team carries responsibility, working at In The Pocket means accepting a high level of autonomy. We rely on trust and openness, and sharing our learning curve. At In The Pocket there?s time to experiment and budget to develop yourself. 

- Mobile Developers (iOS, Flutter, Android en React Native)

- Web Developers

- Back-end Developers

- Front-end Developers

- Full Stack Developers

- AR Developers

- Machine Learning Engineers 

- Data Engineers

- Product Managers

- ...

Find out more about our job openings on our website: https://www.inthepocket.com/careers"
Dataline Holding;Autobaan 21;8210;Loppem;www.dataline.eu;Dirk Deroo;;50832000;"Welkom bij Dataline: werken bij een Europese marktleider in de printmedia industrie.
Ben je klaar voor een bedrijfscultuur waarin enthousiasme, plezier, betrokkenheid en ontwikkeling centraal staat? Volgens ons zijn dit de ingredi‰nten om naast fijn werken ook uitstekende resultaten neer te kunnen zetten. Zo ontstaat software waarmee we onze businesspartners ‚cht verder helpen. 

Met meer dan 1.000 klanten en 10.000 gebruikers in 23 landen is Dataline Solutions met MultiPress de onbetwiste europese marktleider in de automatiseringssoftware voor de printmedia industrie.  Onze medewerkers werken vanuit Brugge-Loppem (Belgi‰), Hasselt (Belgi‰), Limmen-Amsterdam (Nederland), Straatsburg, Parijs (Frankrijk) en Willingen (Duitsland).

Dataline is een sterke groeier. Wij hebben de uitgesproken ambitie om in heel Europa de MultiPress software tot d‚ referentie te maken. Stap voor stap lukt ons dat. Met jouw talent er bij lukt dat nog beter.
Dataline groeit, samen met jou.";"- PHP Developer
Ben jij de Superhero op het vlak van PHP? Dan is Dataline op zoek naar jou!
Als (Senior) PHP Developer maak je deel uit van een getalenteerd team dat het speerpunt vormt van onze internationale ambities. Je werkt samen met je collega?s aan innovatieve projecten voor ons pakket MultiPress vanuit het hoofdkantoor te Brugge. Van het meebouwen van een nieuwe applicatie tot het upgraden van een bestaand platform, bij Dataline krijg je een uitgebreid en gevarieerd takenpakket. In jouw gereedschapskist: PHP, SQL en PHP frameworks. Met deze kennis breng je al je projecten tot een goed einde. Je overlegt en werkt samen met je collega?s volgens de scrummethodologie.
- Digital Marketing Co”rdinator
Ben jij een digitale duizendpoot met technische en creatieve skills en gepassioneerd over alles wat gelinkt is met het online gebeuren? Als Digital Marketeer ben je verantwoordelijk voor de online communicatie en conversie optimalisatie van de Dataline website. Daarnaast streef je naar een optimale online bezoekerservaring en zorg je samen met het marketingteam voor de juiste inzet van de online marketing kanalen. Jouw focus ligt specifiek op volgende vakgebieden: database marketing, remarketing, marketing automation, Linkedin, e-mail campagnes, analyses & online reporting.
- Senior Frontend Developer
Ben jij de Superhero op het vlak van Javascript, CSS en HTML? Blaas jij gebruikers van de sokken met een Frontend die ‚cht tot leven komt? Ga je enkel voor de perfecte user experience? Is pixel-perfect jouw ?middle name?? Dan is Dataline op zoek naar jou!
Als Frontend Developer maak je deel uit van een getalenteerd team dat het speerpunt vormt van onze internationale ambities. Je staat mee aan de wieg van het cloud development project waarmee we met MultiPress, d‚ #1 business software voor de grafische industrie in de Benelux, Europa willen veroveren.
- Frontend Application Developer
Hou jij van nieuwe uitdagingen? Kennen HTML, CSS en Angular geen geheimen meer voor jou? Is pixel-perfect jouw ?middle name? Dan is Dataline op zoek naar jou!
Als Frontend Developer maak je deel uit van de afdeling Development. Je staat mee aan de wieg van een nieuwe cloudontwikkeling van ‚‚n van onze applicaties. De bedoeling is om een webclient te cre‰ren voor onze bestaande business-to-business omgeving.
- Stagairs
Ben jij de stagiair Informatica, Digital Marketing, Event Marketing of Grafimediabeleid die we zoeken? Solliciteer dan meteen en maak je klaar om enorm veel plezier te beleven!
- Meer openstaande vacatures te ontdekken via https://dataline.recruitee.com/"
Say Hey;Torhoutsesteenweg 149;8210;Zedelgem;https://www.sayhey.be/;Martijn Werbrouck;;050/352238;Hey! We zijn een full service communicatiebureau met meer dan 15 jaar ervaring in het cre‰ren van impactvolle merken. Dit doen we op basis van kick-ass naming, branding, grafisch ontwerp, fotografie, videografie, copywriting, webdesign, webapplicaties, digitale marketing, zoekmachineoptimalisatie (seo), e-commerce al dan niet gecombineerd met de opmaak van een strategisch communicatieplan. Als marketingbureau zetten we in op memorabele marketing.;Als deel van het ontwikkelteam ben je verantwoordelijk voor het bouwen van een innovatieve en reactive webapplicatie samen met ons team. Je maakt een gestructureerd project, vertrekkende van wireframes tot complete uitvoering. Er wordt gebruik gemaakt van de nieuwste trends zowel op vlak van design als programmatie.
Sweepatic;Kapeldreef 60;3001;Leuven;www.sweepatic.com;Stijn Vande Casteele;;499998519;"Sweepatic is a young innovative cybersecurity company operating on a global scale making our customers more cyber resilient. 

Our innovative cloud platform maps, monitors and manages attack surfaces across the world producing high impact insights and easy-to-remediate findings. 

To learn more about Sweepatic, visit https://www.sweepatic.com and follow Sweepatic on social media (LinkedIn, Facebook, Twitter and Insta)";"Jr. Security Analyst (""hunter"") internship:

Phase 1 of internship) Main focus is the monitoring of customer scopes on the Sweepatic attack surface management platform. This includes, but is not limited to the triage, assigning of tags and preparing of small tactical ""hunting"" activity, producing fact-based reports detailing the observations in a clear, professional way to customer users.

Release testing: hunt for application bugs or other problems with the product, prior to production release.

Perform an external security test (including vulnerability scan) covering the network, infrastructure, and application layer of the Sweepatic systems and applications related to the product. Presentation of the findings to the internal team.

Phase 2 of the internship) 

Support the Sweepatic product manager in conducting light research on current ongoing reconnaissance and/or OSINT trends, security testing standards as needed with a goal of reporting noticed threats applicable to our customers and developing feature requests (via small proof of concept) on how to address them (via technical specs) from a technical roadmap perspective (e.g. creation of new platform observations, dashboard information elements and/or report elements)

Write ""in-portal"" tactical documentations on existing features, to educate and increase the engagement of users within the Sweepatic platform.

Sweepatic day to day contacts:

Overall: CEO 
Phase 1) CTO
Phase 2) Product manager

Profile:

Experience in organizing, conducting and improving security analysis, threat hunting related work. 
Strong written and verbal communication skills (in Dutch and English), including the ability to convey highly technical information in an accessible manner. 
Familiarity/experience with Linux, Python, JavaScript.
Good understanding and a passion for both cybersecurity, analysis and security testing. 
Interest in Cybersecurity research, Open Source Intelligence gathering, reconnaissance techniques. 
Willingness to interact with people ie. team members and customer users. 
Ability to work independently and in team. Can-do attitude with a focus on problem-solving, quality, and a strong desire to focus and get the job done.

Depending on corona, HQ office is in Leuven, the alternative of remote work or a combination of both can be discussed."
Nowjobs NV;Kortrijksesteenweg 1144D;9051;Sint-Denijs-Westrem;https://nowjobs.be;Johan Coppieters;;32491071638;"Nowjobs is commercieel gelanceerd in april 2017 naar 1 jaar development. Met deze applicatie spelen we sterk in op de digitalisering van de rekruteringsmarkt, de noden van iedereen die snel een centje willen bijverdienen en de behoeften van de horeca-, event- en retailsector die vaak snel tijdelijke personeelstekorten moeten opvangen.

Na 4 jaar is de app een groot succes. Maar liefst 251.000 bijverdieners en 10.000 bedrijven vinden elkaar op deze manier.

Nowjobs levert medewerkers voor de lokale bakker, een cafe met een feetstje, tot de jaarlijkse kerstmarkten, McDonalds, maar ook events zoals TML, Werchter, e.d.

We zijn vorig jaar gestart met de rollout in Nederland en dit jaar Frankrijk, Duitseland komt er aan tegen begin 2022.
Onze development afdeling heeft eigen kantoren in Gent.";"Voor onze eindgebruikers maken we een iOS en Android app, maar ook een webversie met iets meer functionaliteit. We gebruiken hiervoor Ionic bovenop Angular in TypeScript met een aantal native plug-ins. 

Deze apps gebruiken de API van onze eigen server, ook volledig geschreven in TypeScript gebruikmakend van nodejs, mySQL en RabbitMQ. 

Er is een gescheiden research team dat zich ondermeer met machine learning bezig houdt om werkzoekers aan de juiste jobs te koppelen. 

Het QA team schrijft automated tests op deze omgeving. 

Afhankelijk van de interesse en kennis van de developers en stagairs kiezen zij een team, waar ze meedraaien in de sprints. Begeleiding wordt door de teamleads voorzien, maar ook door mezelf als ex docent VUB en Howest Brugge."
ORAC Holding NV;Biekorfstraat 32;8400;Oostende;www.oracdecor.com;Thomas Nuijttens;;474938279;"Orac Decor© is de internationale standaard voor 3D-ornamenten van hoge kwaliteit en innoveert voortdurend in technologie, materialen en design. Het resultaat is een uitgebreide en complete collectie van en voor gepassioneerde professionals. Creatieve professionals die innovatie waarderen en kwaliteitsproducten die eenvoudig te installeren zijn, waardoor ze inspirerende en unieke ruimtes kunnen cre‰ren. Van plinten en indirecte verlichtingsprofielen tot multifunctionele profielen en kroonlijsten met een echt karakter. Kortom eigentijdse kwaliteitsoplossingen die zowel functioneel als decoratief zijn.

Met Orac Decor© kunt u elke kamer uniek maken, geheel in lijn met uw stijl en persoonlijkheid, zonder creatieve beperkingen.";Momenteel zijn we op zoek naar een echte Smart Tech & AI Creator of IoT Infrastructure engineer die samen met ons nieuwe horizonten wil verkennen. Ben je ge‹nteresseerd in het maken van Bots om de klantenervaring naar een hoge niveau te tillen? Heb je kaas gegeten van de IoT oplossing om data van onze machines naar de Cloud te transformeren? Of ben jij de ontwikkelaar van onze eerste AR app? Dan ben je bij ons aan het goede adres! Toffe werkplaats en Friday after work drinks inbegrepen!
IF-IT4U;Blokkestraat 41A bus 1.3;8550;Zwevegem;https://www.if-it4u.com;Koen Verbeke;;32477420456;bvba is een dienstverlenend ICT bedrijf met meer dan 15 jaar ervaring in de KMO markt. Wij streven ernaar onze klanten een totaalpakket aan informatica diensten en bijhorende hardware/ infrastructuur aan te leveren. Op die manier zorgen we er voor dat onze klanten slechts ‚‚n aanspreekpunt hebben inzake hun ICT beleving.;"PowerBI
Azure & Cloud Infrastructure, Windows Virtual Desktop, VPN networking to Azure,..."
Keypoint;Kuipweg 13;8400;Zandvoorde;www.keypoint.be;Tijs Corneillie;;494074516;"Keypoint is de digitale assistent voor alle partijen die een beslissingsbevoegdheid hebben over herstellingen en onderhoud aan gebouwen, het beheer en de communicatie maar ook voor het verlenen van advies en ondersteuning.

Via ons digitaal samenwerkingsplatform worden alle betrokken partijen gekoppeld en wordt dossierbeheer sterk geautomatiseerd en effici‰nter. Een dossier wordt zo digitaal, transparant en relevant op het juiste moment ‚n dat voor iedereen. Hiervoor bouwen wij ook tal van koppelingen met beheersoftware uit onze respectievelijke doelmarkten.

Daarnaast beheren wij ook ons eigen herstelnetwerk over gans Belgi‰ die alle types van opdrachten kan herstellen, zowel binnen als buiten de verzekeringen. Via de Keypoint Community bieden wij ook gratis ondersteuning aan syndici via onze partners voor het bekomen van EPC attesten, technische audits enz.";"Keypoint is een startup met 11 medewerkers. Je komt als stagiair in een team terecht van 3 developers & 1 support medewerker. Ondanks dat we goed weten waar we hiermee naartoe willen verwachten we dat je actief mee nadenkt over de implementatie & verwachten we jou input. Echter moet je ook de input van het team kunnen accepteren en verwerken bij de implementatie.

Ons platform wordt gebruikt als SaaS oplossing door : 
- Gebouwbeheerders (bijvoorbeeld Syndici, Retailketens, ... )
- Verzekeraars & verzekeringsmakelaars
- Aannemers
- Ons eigen Customer Care team voor het beheer van onze dienst Keypoint Repair. 

In het development team richten we ons naar full stack profielen, dus mensen die zowel front-end als back-end kunnen meedraaien. Ons platform wordt volledig gehost in Azure, en bestaat uit : 
- asp.net WebAPI
- een eigen IDP (Identity provider)
- Azure functions
- SQL DB
- Asp.net MVC app
- React front end applicatie
- Xamarin app

In 2021 focussen we onszelf te migreren naar .NET 5, je zal dus met de nieuwste technologie‰n aan de slag kunnen.

Keypoint is een sterk groeiende organisatie, indien er een match is kunnen we misschien wel blijven samenwerken na je opleiding!"
Howest Internationale stage MCT;Sint-Martens-Latemlaan 2B;8500;Kortrijk;www.howest.be;Claudia Eeckhout;;056 24 12 47;MCT internationaal;ge‹nteresseerde MCT studenten die internationale stage wensen te doen.
Howest Internationale stage TI;Howest Brugge;8000;Brugge;www.howest.be;Jill Vandendriessche;;niet gekend;"Internationale stage TI
";"ge‹nteresseerde studenten voor internationale stage TI
"
Aaltra;Brusselsesteenweg 202;9090;Melle;www.aaltra.eu;Pieter-Paulus Vertongen;;479516653;Aaltra is een ?Digital Innovation Studio? in Melle (bij Gent). Vanuit onze studio werken we met een team van getalenteerde designers en ontwikkelaars aan de digitale producten en diensten van de toekomst. Voor klanten zoals Daikin, Novy, Qguard maken we innovatieve apps en IoT-oplossingen die een echt verschil maken in het dagelijkse leven van duizenden gebruikers.;"Je staat op het punt om af te studeren en je kan niet wachten om je kennis, goesting en inspiratie in te zetten voor echte klanten en echte gebruikers? 
Dan beland je liever niet in een bedrijf waar je elke dag andere klusjes gaat opknappen.
Bij Aaltra bieden we elk jaar een duo van 2 stagiairs de kans om deel uit te maken van ons team. Naast een fantastische eerste werkervaring bieden we je ook de kans om te werken aan een duidelijk uitgetekend project. Onder onze begeleiding leer je je eigen beslissingen te nemen, je leert omgaan met werkplanning en je komt in contact met de klant. 
Na je stage bij Aaltra heb je dus niet alleen ontzettend veel bijgeleerd. Je kan ook apetrots zijn op het project dat je opleverde.
Jouw profiel:
?	Je bent enthousiast en leergierig.
?	Je kan goed overweg met minsten ‚‚n van de volgende zaken:
o	HTML, Javascript & Css
o	iOS development (Swift)
o	Android development (Java)
o	Vue js
o	Backend development (C# .Net, SQL)
"
Duo nv;Bargeweg 2;8000;Brugge;https://www.duo.be;Rien Kerckhof;;+50 96 10 00;"Duo, een digital agency?

Ja en neen. Duo bouwt oplossingen op maat. Met ons gedreven team te Brugge kiezen we steeds de juiste technologie voor onze klanten. Of dit nu gaat over automatisering, complexe websites, webshops in Drupal of Magento, enterprise applications, digitale strategie‰n of mobile- & webapplicaties. Voor ons draait het om klantgericht innoveren. We houden ervan uitdagende maatwerkprojecten aan te nemen voor interessante klanten zoals de Abdij Van West-Vleteren, Plopsa, McDonald's en ga zo maar door. 
";We zijn op zoek naar Professionele Bachelorstudenten (TI/NMCT) die graag willen meedraaien in een digital agency. Bij ons wordt je niet gewoon in een vergeethoekje gestopt, maar werk je samen met ervaren collega's mee aan diverse projecten. Die projecten stemmen we af op jouw skillset/interesses, zodat je tijdens je stage al voeling kan krijgen met wat je na je studies wil doen! Of je nu liever front- of backend development doet, of eerder ambities hebt in UX/UI design - kom eens praten - is het een match, dan hebben we een leuke stage voor jou in petto!
Givt B.V.;Stijn Streuvelslaan 45;8501;Heule;www.givtapp.net;Maarten Vergouwe;;32497809851;Givt is een jong en dynamisch bedrijf dat oplossingen voorziet voor mensen die graag hun steentje willen bijdragen aan een betere wereld door een financi‰le donatie te doen aan een goed doel of andere non-profit-organisaties. Want: geven is anders dan betalen.;We werken aan de ontwikkeling van een persoonlijke geefassistent waarin je op een slimme manier de goede doelen kunt leren kennen die bij jou passen. Hiervoor zijn we op zoek naar profielen die willen meehelpen aan de software-ontwikkeling, de ontwikkeling van algoritmes voor matching en de analyse van data.
DX-Solutions;Gentsestraat 79/101;8530;Harelbeke;https://www.dx-solutions.be;Eline Verplancke;;471388785;"DX-Solutions, een award winnend IT-bedrijf, digitaliseert en automatiseert bedrijfs- en verkoopsprocessen en vertaalt die naar intelligente, platformonafhankelijke applicaties en dit altijd met de duidelijke focus op innovatie.

Wij laten verschillende applicaties en systemen praten met elkaar en genereren output die de business vooruithelpt.";"""We hire for attitude, train for skill""
Als PHP developer bouw je samen met een team mee aan state-of-the-art applicaties en platformen
Wat je bouwt is vlot uitbreidbaar (modulair) en kan groeien/zich aanpassen zonder belemmeringen naar de toekomst
Je werkt in een team, volledig binnen een Agile kader en volgens de scrum rituelen
We gebruiken een JIRA board om de taken van de tweewekelijkse sprints voor het team handig in te plannen, tickets worden door de teamleden zelfstandig opgepikt
Je bent verantwoordelijk voor het uitvoeren van enkele automatische tests en het uitsturen van pull requests
Je komt terecht in een team waarin continu samengewerkt wordt en waarin de geschreven code door elkaar opgevolgd en bijgestuurd wordt"
Renson;Maalbeekstraat 10;8790;Waregem;www.renson.eu;Lieselot Baert;;056/303182;"?Creating Healthy Spaces?, zo luidt de baseline van Renson. Als trendsetter in ventilatie, zonwering en terrasoverkappingen stelt dit dynamisch familiebedrijf sinds 1909 dan ook alles in het teken van een gezonde en comfortabele leef- en werkomgeving. Door sterk in te zetten op innovatie, communicatie en internationalisatie zit Renson de toekomst op de hielen, steeds met de focus op een gezond en comfortabel binnenklimaat in woningen, appartementen, kantoren, scholen en zorginstellingen. De nadruk ligt op duurzame totaalconcepten, die tegemoet komen aan de behoeften op het vlak van energiezuinigheid, akoestiek en design.

Hoewel sterk lokaal verankerd, draagt Renson z?n visie ook steeds internationaler uit, getuige het sterke distributienetwerk dat intussen tot de USA, het Midden-Oosten, Azi‰ en zelfs Australi‰ reikt. Daarmee zet Renson z?n ambitie kracht bij om uit te groeien van een Belgisch bedrijf naar een wereldspeler in ventilatie, zonwering en outdoor-concepten.";"Als groeibedrijf, zijn er tal van uitdagingen op IT/IoT-vlak en kunnen we dus helpende handen gebruiken op tal van innovatieve en uitdagende projecten:
- de opening van een aantal nieuwe sites
- het ontwikkelen van een nieuw klantenportaal/platform
- het ontwikkelen van nieuwe mobile applications
- de implementatie van een nieuw ERP-systeem
- ...
Zin om enorm veel bij te leren met ondersteuning van topteams? Dan ben je bij Renson aan het juiste adres!
"
Soft Naert;Rijksweg 57;8870;IZEGEM;www.soft-naert.be;Jonas Vanassche;;051 30 85 37;Soft Naert bestaat uit een gedreven team van IT-experts die ERP-oplossingen ontwikkelt met een duidelijke en innovatieve meerwaarde. Wij helpen KMO's en multinationals om effici‰nter, klantgerichter en digitaler te werken. ;"Soft Naert is op zoek naar junior-profielen die graag hun tanden zetten in nieuwe en uitdagende IT-projecten. Samen met je collega?s analyseer je de noden van de klant en zet je deze om naar bruikbare/praktische en 
gebruiksvriendelijke programma?s. Dankzij jouw persoonlijke inspanningen kan de klant effici‰nter en kostenbesparender werken.  

Zelfstandig projecten leiden, successen vieren met collega?s ‚n een glimlach toveren op het gezicht van onze klanten, daar draait het bij ons om!

Bij ons krijg je de kans om je IT-skills verder bij te spijkeren en ontwikkel je een mooie expertise op vlak van bedrijfsprocessen. Technologie gemixt met business! We bieden een afwisselende job met flexibele uren binnen een sterke onderneming. 

We zijn steeds op zoek naar:

- ERP-Developers, 
- ERP-Consultants, 
- Studenten die bovenstaande functies willen combineren. 
"
CREATE.eu;Noorwegenstraat 49;9940;Evergem;https://www.create.eu;Davy Hoskens;;3293302290;CREATE.eu uses the latest multimedia technology to create stunning experiences and bring stories to life for a wide audience. Our broad range of skills leads to unique projects that blend creativity, concept creation, content development and hardware integration.;Because of the diversity in our projects and technologies we use, we welcome students that are either intrigued by Interactive and Immersive Content creation (Unity, Unreal Engine, VFX, motion graphics, UI & UX work, AV productions) or data management (backend/frontend development). We can offer a challenging but enriching internship to all kinds of talent. Make sure to check out the projects our website!
Codifly;Lokerenveldstraat 57 bus 2.1;9300;Aalst;https://codifly.be;Arvid De Meyer;;+32 472 37 25 49;"Codifly is een jong bedrijf gespecialiseerd in de ontwikkeling van innovatieve software-toepassingen. Wij helpen bedrijven met het bouwen van complexe hoog-interactieve webapplicaties, mobiele applicaties en IoT-oplossingen, en dit van backend tot user interface. We zijn voornamelijk actief voor startups, maar werken ook aan innovatieprojecten van gevestigde waarden.

Wij geloven sterk in het web en IoT en zijn er vast van overtuigd dat de technologische evolutie hier nog maar net begonnen is. Met als achterliggende visie ?Improve the connected world?, verbeteren we als koplopers dag na dag de verbonden wereld. Zo dragen wij ons steentje bij in de manier waarop we morgen leven, communiceren, werken en spelen. Concreet gebruiken we de laatste JavaScript-technologie‰n (React.js, React-Native, Node.js, ES7, GraphQL, Apollo, Redux ?) voor het bouwen van web- en native applicaties met een sterke visuele identiteit en een optimale gebruikservaring, perfect afgestemd op de noden van de eindgebruiker. ";Tijdens je stage als Javascript Developer zal je samen met ons jong en enthousiast team werken aan de ontwikkeling van software-oplossingen (web/native/server) geschreven met behulp van webtechnologie‰n. Je leert hierbij de toepassing van Agile-methoden, van sprint planning tot project tracking. Je leert verder gebruik te maken van hedendaagse software development tools (Gitlab, JIRA, Confluence, SourceTree/Git) en JavaScript-tools zoals Webpack, Babel, ESLint en VS Code. Je leert groeipijnen te voorkomen door het consistent volgen van best practices zoals codedocumentatie, software testing en preventief refactoren. 
Deloitte Belgium;Luchthaven Brussel Nationaal 1J;1930;Zaventem;https://www2.deloitte.com/be/en.html;Arnout Bouckaert ;;0032 2 749 56 80;As a leading audit and consulting practice in Belgium, Deloitte offers value added services in audit, accounting, tax, consulting, and financial advisory services. In Belgium, Deloitte has more than 4,500 employees in 11 locations across the country, serving national and international companies, from small and middle-sized enterprises, to public sector and non-profit organisations. ;Many interesting job opportunities within our 9 job types: Accounting & Controlling, Audit, Business Support, Consulting, Corporate Finance, Legal, Risk Advisory, Tax, Technology
Decospan;Lageweg 33;8930;Menen;www.decospan.com;Evelien Vanden Brande;;+32 473 88 28 16;"Decospan is al drie generaties een betrokken familiebedrijf met een onverzadigbare passie voor hout. Die voorliefde proberen we door te geven aan iedereen in en rond de onderneming.
Als marktgericht lifestylebedrijf denken we ook graag mee met de voorschrijver, de verwerker en de bouwheer om totaaloplossingen op basis van deze prachtige en hernieuwbare grondstof te ontwikkelen. We dromen er van iedereen te kunnen laten genieten van hout door de tools aan te reiken waarmee dit nobele product eenvoudig kan worden ge‹ntegreerd in onze dagelijkse leefomgeving.
Automatisatie wordt aangestuurd vanuit onze groeiende OT-cel.  De nieuwste technologie‰n worden ingezet om de productie- en logistieke processen zo effici‰nt mogelijk te laten verlopen.  Onze state-of-the-art site in Menen is ons epicentrum en voorbeeld binnen de Decospan groep.  
Digitalisatie verankert zich ook steeds meer in onze organisatie.  Voor al onze stakeholders streven we naar een excellente digitale ""Consumer of Employee experience"".  ";"De domeinen waarbinnen we studenten graag begeleiden zijn:
AX-Application / Analist --> verdere Optimalisatie van onze ERP-projecten + ondersteuning van onze internationale AX-implementatie 
Digital Engineering --> verdere uitbouw en ondersteuning van onze diverse websites, ofwel binnen onze IT afdeling, ofwel binnen onze Marketing afdeling.  Gezien ""Digitalisatie"" hoog op onze strategische agenda staat, liggen hier tal van projecten voor het rapen.
OT Engineering --> wij zoeken steeds naar optimalisaties binnen onze productieprocessen.  Ook zijn er tal van mogelijkheden tot een kwalitatieve stageopdracht.

Past dit minder bij je ambities, maar wil je toch graag aan de slag bij Decospan?  We luisteren graag naar je en wie weet vinden we toch een opportuniteit.  Laat dus zeker van je horen!

Wij staan garant voor een zeer kwalitatieve stagebegeleiding, omwille van 
- het feit dat onze afdelingen momenteel compleet zijn, wat betekent dat je niet meedraait in een 'onderbezet' team en dat er dus voldoende tijd kan vrijgemaakt worden voor jou.
- Decospan groeit daarenboven nog stevig, wat maakt dat we graag investeren in technologie‰n om deze verdere groei te ondersteunen.
En wie weet kan je na je stage aan de slag bij Decospan als Professional, net zoals vele anderen intussen!"
Saasbuilders BV;Moldergem 1;9630;Sint-Denijs-Boekel;https://www.saasbuilders.be;Maarten Lermytte;;477224959;"Ooit zelf je eigen SaaS-oplossing (Software as a Service) willen maken of er aan mee werken?
Dit is de expertise van Saasbuilders. We bouwen SaaS zowel in eigen beheer als voor externe klanten.

Voorbeelden hiervan zijn PatientManager.eu, software voor zelfstandige vroedvrouwen & LogoAdmin.be, software voor logopedisten. Dit telkens met de insteek ""lifestyle business"", ofwel doen waar je echt gelukkig van wordt met voldoende inkomsten. Dus: happy coding!";We zoeken een profiel met interesse in het uitbouwen van een Saas-project. Gaande van uitbouwen van een API vanaf nul t.e.m. het implementeren van de front-end op basis van Tailwind UI templates & het online plaatsen in een schaalbare serveromgeving. Back-end zal je uitbouwen in Laravel (PHP), front-end op basis van VueJS & de serveromgeving in DigitalOcean met deployment via Laravel Forge.
Decat Energy Technics;Pervijzestraat 17;8600;Diksmuide ;www.decat.be;HRM;;051 55 50 01;Decat is een installatiebedrijf gespecialiseerd in technieken zoals verwarming, ventilatie, sanitair, elektrische installatietechnieken, programmatie, hoogspanning,? Voor nieuwbouw of renovatie, openbare of private opdrachten wordt een studie op maat gemaakt en dit voor alle technieken na de ruwbouw. Voor ons is het van groot belang om elk project met de grootste zorg af te werken. Kwaliteit en klantgerichtheid komen hierbij op de eerste plaats. Als installatiebedrijf met erkenning klasse 8 functioneren we als een technische integrator-dienstverlener. In ons bedrijf staat een team van gedreven medewerkers dagelijks klaar om opdrachten veilig, op tijd en vakkundig uit te voeren. Projectingenieurs ontwikkelen oplossingen en begeleiden onze projecten, ondersteund door de diensten magazijn en onderhoud, de tekenafdeling, administratie, facturatie, boekhouding, personeel en vorming. Met een gezonde dosis ambitie wordt verder gebouwd aan een verantwoorde bedrijfsexpansie met gemotiveerde projectleiders en toptechniekers. Naast onze site in Pervijze, zijn Veurne en Aalter bijkomende technische uitvalsbasissen om klanten een vlotte service te garanderen.;Om ons dynamisch team verder uit te bouwen, zijn wij actief op zoek naar nieuwe medewerkers op onze verschillende sites te Pervijze, Veurne en Aalter! Samen met U gaan we op zoek naar de geschikte functie. Met onze divers openstaande technische, alsook administratieve vacatures, zijn er tal van mogelijkheden ! Nieuwsgierig en/of op zoek naar een nieuwe uitdaging in een sterk groeiend bedrijf met dynamische sfeer? Neem snel een kijkje via https://www.decat.be/nl/jobs. Hopelijk tot binnenkort! 
Dropsolid N.V.;Moutstraat 60;9000;Gent;https://dropsolid.com/nl;Steven Pepermans;;09 395 02 90;Dropsolid is een bedrijf dat marketing, business en technology combineert. Door gebruik te maken van een open-source platform (Drupal) cre‰ren we sites die gebruikt maken van een slimme AI. Dropsolid is een jong en groeiend bedrijf dat op 5 pilaren steunt: Trust, Challenge, Grow, Help en Enjoy. Iedereen van het bedrijf draagt deze waarden met zich mee.;"Wij zoeken de volgende 3 profielen: 
- Stagiair R&D engineer met focus op dataprocessing & machine learning
- Stagiair systeem- en netwerkbeheer
- Stagiair Junior Drupal Developer"
Van Gils;Holstraat 56;8790;Waregem;www.vangils.pro;Hilde Balcaen;;32497849022;"?WHEN AUDIOVISUAL MAGIC BECOMES REALITY? 

Magie, dat is wat wij beloven aan onze klanten en ook waar wij zelf met passie voor gaan. De combinatie van heldere, impactvolle audio en kleurrijk, impressionant beeld zorgt voor een ware belevenis bij de mensen thuis en binnen bedrijven.  

Van Gils is specialist in het integreren en automatiseren van complete TV, audio en netwerk installaties voor zowel particulieren als bedrijven. Onze visie steunt op innovatie en topkwaliteit in combinatie met een perfecte installatie en uiterst verzorgde service. We durven het aan om binnen de sector het voortouw te nemen en actief in te spelen op de uitdagingen voor de toekomst.
We beginnen met het luisteren naar de noden en wensen van de klant. We stellen de integratie samen, werken deze uit en plaatsen deze. Dit alles in samenspraak met de klant en alle betrokken partijen.
 Van Gils vertaalt de complexe taal van audio en video naar gebruiksvriendelijke en klare praat. De klant ervaart een fantastische kijkervaring met een eenvoudige bediening. Ook na plaatsing blijven we paraat staan voor onze klanten met technische ondersteuning en advies. ";"Ben jij een tech wizard met een passie voor het audiovisuele? Installateur audiovisuele- en netwerkintegraties 
Van Gils-audiovisueel systeemintegrator.
Werk mee aan audiovisuele installaties die magie tot bij de mensen thuis brengt en binnen bedrijven. Als installateur sta je in voor de volledige integratie van audiovisuele- en netwerkintegraties. Je gaat zelfstandig bij klanten op locatie waar je enerzijds bestaande integraties op punt stelt en anderzijds nieuwe totaal belevenissen monteert, programmeert en operationeel maakt. Vari‰teit gegarandeerd.

Kortom:
øInstalleren en monteren apparatuur
øProgrammeren en integreren apparatuur
øProgrammeren aansturingslaag
øConfigureren netwerken (basis)
øTechnische interventies

Jouw profiel:
øSterke interesse in AV
øKennis van netwerkintegraties is een pluspunt
øKlantvriendelijk/ sociaal
øZelfstandig 
øOndernemend/ neemt initiatief/ pro-actief
øOrdelijk

Wat kan je verwachten:
Je mag rekenen op een uitdagende en veelzijdige functie. Daarnaast kom je werken in een prettige informele sfeer bij een professionele organisatie met ruimte voor initiatief en persoonlijke groei, waar service en kwaliteit belangrijke pijlers zijn.
Van Gils biedt een motiverend salaris pakket, in verhouding tot jouw kwalificaties en ervaring, aangevuld met extralegale voordelen:
øFilou-moment op vrijdagnamiddag (van zodra de omstandigheden het weer toelaten)
øMotiverende bonus, resultaat gerelateerd
øBedrijfswagen met tankkaart
øLaptop
øIPad
øGSM abonnement;
øDKV hospitalisatie verzekering
"
IBM Belgium;Bourgetlaan 42;1130;Brussel;https://www.ibm.com/be-en;Frank Seye;;475606743;"IBM Global Business Services (GBS); enables enterprises to make smarter decisions and providing unparalleled client and consumer experiences via Cognitive data analytics, cloud technology and mobile app development. IBM GBS is a team of business, strategy and technology consultants who help clients envision their future as cognitive enterprises, all supported by the industry?s most sophisticated talent model. With global reach, outcome-focused methodologies and deep industry expertise, GBS empowers clients to digitally reinvent their business and get the competitive edge in the cognitive era in over 170 countries.

This is your opportunity to join a company where you can make the world work better ? we are IBMers, and that?s what we do. World-class learning opportunities, mentoring and a flexible work environment ? you will find a wealth of opportunities within IBM to create the career you?ve always imagined. And there are no limits to the opportunities we offer ? from design to analytics, consulting to sales, development to marketing.

Industries are converging. Boundaries are blurring. Traditional competitors are reinventing themselves. We are changing how we create, collaborate, analyze, and engage. IBM is a leader in this global transformation, and there is no better place to launch or further your career.";"An internship is an investment in your future and increases your employability.
Completing an internship at IBM gives you the opportunity to work hands-on in a professional environment.  In the past we have had positions as Mobile Application Developer, Watson Cognitive / Machine Learning consultant, Data Engineer, Life Sciences consultant, .
You will gain professional experience by working on client projects and use cases, mostly in our Brussels Offices but sometimes at client site.  You will regularly interact with other IT specialists, consultants and client representatives, who will teach you how to network and communicate in a professional environment.  Projects are fast-paced, so you will learn all about time management.  In short: the internship will lay the foundation for your career.  Yes ? possibly at IBM.
"
Inuits BV;Essensteenweg 31;2930;Brasschaat;https://inuits.eu/;Arne Kerremans;;491887978;"INUITS is een Europees Open Source bedrijf met een sterk team van professionals, actief aan de frontlinie van de DevOps beweging. We zijn innovatief en van mening dat grenzen verlegd moeten worden. Wij willen dat onze werknemers bijleren, zichzelf verbeteren en een stuwende kracht worden binnen het Inuits gebeuren. Door te genieten van hun job en het werk dat ze leveren, inspireren onze consultants zichzelf en andere rondom hen dagelijks.
Inuits staat aan de leiding van de implementatie van Open Source technologie‰n in de bedrijfswereld binnen Belgi‰, Nederland, Tsjechi‰ en Oekra‹ne. We helpen organisaties van begin tot einde bij het ontwerpen, implementeren, toepassen en managen van stabiele en meetbare structuren, gebaseerd op Open Source technologie‰n. #DevOps
Wij geloven sterk in een open en persoonlijke aanpak bij elk zakelijk probleem, we implementeren daarom onze Open Source mind-set in alles wat we doen. We zijn een Open Source integrator, continu op zoek naar mensen met ervaring/interesse in verschillende programmeer- en scriptingtalen en Linux-Distributies.
Developers, DevOps engineers, Linux system engineers en alles daartussen zijn welkom.
Binnen de stages zul je verschillende rollen aannemen. Je zal ingeschakeld worden als project manager, als UI/UX specialist, als developer, als functionele analyst, etc. We zijn zeer benieuwd naar eigen inbreng, jou mening telt! Plan als scrum master de sprints, de stand ups, bepaal de backlog, stuur het project de juiste richting in, en zoveel meer!";"We zijn een Open Source integrator, continu op zoek naar mensen met interesse in verschillende programmeer- en scriptingtalen en Linux-Distributies. Developers, DevOps engineers, Linux system engineers en alles daartussen zijn welkom.
Qua opdrachten en projecten doen we bij Inuits echt wel knappe dingen. Zo hebben we in het verleden projecten uitgewerkt voor politie Antwerpen, Brussels airport, Sportoase, Universiteit Gent, ... We moedigen ook de proactieve studenten aan die zelf met hun idee‰n naar ons komen.
Het niveau ligt bij onze starters en stagaires altijd zeer hoog. We zijn veeleisend op het vlak van Linux kennis en verwachten een passie voor open-source. Voor studenten en starters die nog een beetje achterlopen op het vlak van Linux etc. , bieden we ook een bootcamp aan. Hier geven een paar topexperts in de DevOps-en Linuxwereld je de nodige boost om helemaal mee te zijn en aan volle 100% je carriŠre bij Inuits te starten!

Meer info:
https://inuits.eu/
Jobs@inuits.eu"
delaware Belux;Kapel Ter Bede 86;8500;Kortrijk;https://www.delaware.pro/nl-BE/Careers/junior;Sihame Haddaoui;;+32 476 71 22 66;Wij zijn een IT consultancy bedrijf. Wij halen graag het beste in technologie (en in mensen!) naar boven om onze klanten te helpen hun bedrijfsprocessen te verbeteren. We geloven echt dat innovatie en technologie hand in hand gaan, dus we zijn altijd op zoek naar nieuwe, opwindende tools. Hoe dan ook, als consultants zijn we trots op de oplossingen die we bouwen en de diensten die we aanbieden.;delaware gelooft in het geven van elke kans aan jonge professionals om te ontdekken wat en wie ze willen worden. Daarom hebben we een uitgebreid stageprogramma. Als je op zoek bent naar een stage om je studie af te ronden of gewoon een eerste echte werkervaring wilt, zelfs als je nog niet weet welke kant je op wilt na het afstuderen, ben je bij delaware aan het juist adres! We bieden elk jaar een brede waaier aan technische innovatieprojecten aan. We luisteren meestal gewoon naar wat jouw superkracht is en zoeken een team of project dat bij jouw interesses past. Front-end, back-end, app- of webontwikkeling, business, supply chain, financi‰n, operations, IoT, SAP, AI, data - noem maar op! De kans is groot dat we voor jou een uitdagende, echte case hebben om aan te werken.
AllPhi NV;Guldensporenpark 24;9820;Merelbeke;www.allphi.eu;Alien Carlier;;0497 64 92 83;AllPhi is een onafhankelijk consultancy bedrijf gespecialiseerd in software ontwikkeling met een duidelijke focus op technologie (Microsoft .NET). Vertrekkend vanuit persoonlijke competenties en voorkeuren wordt er gezocht naar de perfecte match tussen opdracht en consultant. AllPhi is opgericht in 2011. Het eerste kantoor opende in Westerlo en al snel volgde er een kantoor in Gent. Vandaag leveren wij diensten in heel Vlaanderen en daarbuiten.;"Wij zijn op zoek naar gedreven en gepassioneerde .NET developers! Consultancy heeft een heel belangrijkste voordeel. Consultants werken op diverse projecten en in verschillende soorten omgevingen. Dit wil zeggen dat je niet alleen leert wat je sterke kanten zijn maar ook in welke omgeving je wel of minder graag werkt.

Je zal nooit ergens intern vastroesten en je kan zonder zorgen proeven van wat de markt te bieden heeft.

Verder wordt al je project administratie voor jou gedaan. Je wordt ondersteund door een bedrijf dat jou projecten aanbiedt die mee in lijn liggen met je persoonlijk ontwikkel-traject.

"
Co-libry;Antoinette Vandeputtepad 25;9000;Gent;https://co-libry.com/;Sam Debeuf;;474952441;Co-libry is een Gentse tech start-up. We bieden AI/ML/data gedreven oplossingen aan voor real-estate/job/car portalen en marktplaatsen. We zijn een jong team die heel hard inzetten op schoolverlaters en stagiairs/job studenten aangezien jullie de toekomst zijn van onze maatschappij. ;"Wij zijn op zoek naar een data enthousiast problem-solver die op de hoogte is van de mogelijkheden van AI, een pragmatische denker die het einddoel nooit uit het oog verliest. 

Dit ben jij
    ? Een sterke analytische achtergrond 
    ? Minimum technische expertise in Python
    ? Optionele expertise altijd welkom in 
        ? Git
        ? Google Cloud Platform
        ? SQL
        ? Scala
        ? PySpark

Co-libry biedt je
    ? Ervaring opbouwen in alle aspecten van data
    ? Samenwerken met een jong en dynamisch team
    ? De kans om na je stage meteen je eerste job bij Co-libry te versieren

Als we er labels op moeten plakken: data scientist, data engineer, ML engineer, AI engineer, data analyst, backend application developer, ..."
Calibrate;Veldkant 4;2550;Kontich;https://www.calibrate.be;Tom Hollevoet;;472772873;Calibrate is een digitaal webagentschap gevestigd in Gent, Kortrijk, Antwerpen en Leuven met meer dan 50 werknemers. Calibrate is gespecialiseerd in custom webdevelopment (Drupal, Symfony en Laravel) en voorziet begeleiding over het hele digitale proces.;Calibrate zoekt PHP backend- en frontend programmeurs voor de bouw van de website, alsook analisten, designers en marketeers voor het denk en groei werk van de website. We werken voor klanten in de private en publieke sector, een overzicht van onze klanten zijn terug te vinden op https://www.calibrate.be/nl/onze-klanten
Sweet Mustard;Nijverheidskaai 3/11;8500;Kortrijk;www.sweetmustard.be;Jan Sem;;468175215;"Co-creatie software oplossingen op maat.

Sweet Mustard bestaat uit ware teamspelers die de ambitie koesteren om bij elke stap van de weg digitale technologie te omarmen. We helpen bedrijven hun ambitieuze toekomst te realiseren. We willen een open samenwerking met bedrijven die bereid zijn te groeien volgens nieuwe modellen, nieuwe regels en verder denken dan enkel het product. Als je het ons vraagt, werken de knapste Vlaamse koppen met ons samen aan oplossingen van wereldklasse, dicht bij huis.";"Ben je gemotiveerd, ervaren, leergierig, op zoek naar een nieuwe ""mosterd getinte"" belevenis en wil je kost wat kost deel uitmaken van ons team?

Geen zorgen, we zijn altijd op zoek naar getalenteerde en gedreven personen! Stel jezelf voor, verras ons en we zullen contact opnemen."
Eforge BV;Blokkestraat 41B bus 1.1;8550;Zwevegem;www.robaws.be;Line Ververken;;0494/47.07.74;Robaws is een start-up die een softwarepakket voor de bouwsector aanbiedt waardoor o.a. de facturatie, planning en CRM geautomatiseerd worden. Robaws werkt met de meest innovatieve technologie‰n waardoor het zich sterk onderscheidt van andere systemen vandaag op de markt. In het kader van onze groeiambities gaat Robaws op zoek naar een gedreven ?Java Developer?. Ben jij op zoek naar een unieke uitdaging waarbij je een bepalende rol kan spelen in de uitbouw van een jonge organisatie? Kom dan zeker langs tijdens de stagemarkt!;"- Je ontwikkelt mee aan de Java-applicatie van Robaws. Je bent betrokken doorheen de hele production Life Cycle en schrijft, codeert, test, analyseert en evalueert de applicatie.
- Je zal werken in een Agile/Scrum omgeving.
- Je bent betrokken bij de ontwikkeling van zowel de frontend als backend, en gaat met een brede waaier van technologie‰n aan de slag, met o.a. Java 11, Spring Boot, mobile, AWS, cloud, GWT en Flutter.
"
SpotIT;Guldensporenpark 30C;9820;Merelbeke;https://www.spotit.be;Thomas Boedt;;479372433;SpotIT wil een trusted advisor zijn voor zijn klanten. We werken met onze klanten samen aan innovatieve security- en netwerkarchitecturen die een groot strategisch voordeel en inzicht bieden. SpotIT begint een reis met elke klant en bouwt een langdurige relatie op gebaseerd op visie, gespecialiseerde kennis, toewijding en vertrouwen.;Wij zoeken studenten die willen meewerken aan het onderzoek van de laatste nieuwe security tools en producten, deze te installeren, evalueren en beschrijven.
Dataline Holding;Autobaan 21;8210;Loppem;www.dataline.eu;Inge De Boever;;50832000;"Welkom bij Dataline: werken bij een Europese marktleider in de printmedia industrie.
Ben je klaar voor een bedrijfscultuur waarin enthousiasme, plezier, betrokkenheid en ontwikkeling centraal staat? Volgens ons zijn dit de ingredi‰nten om naast fijn werken ook uitstekende resultaten neer te kunnen zetten. Zo ontstaat software waarmee we onze businesspartners ‚cht verder helpen. 
Met meer dan 1.000 klanten en 10.000 gebruikers in 23 landen is Dataline Solutions met MultiPress de onbetwiste europese marktleider in de automatiseringssoftware voor de printmedia industrie.  Onze medewerkers werken vanuit Brugge-Loppem (Belgi‰), Hasselt (Belgi‰), Limmen-Amsterdam (Nederland), Straatsburg, Parijs (Frankrijk) en Willingen (Duitsland).

Dataline is een sterke groeier. Wij hebben de uitgesproken ambitie om in heel Europa de MultiPress software tot d‚ referentie te maken. Stap voor stap lukt ons dat. Met jouw talent er bij lukt dat nog beter.
Dataline groeit, samen met jou.";"- PHP Developer
Ben jij de Superhero op het vlak van PHP? Dan is Dataline op zoek naar jou!
Als (Senior) PHP Developer maak je deel uit van een getalenteerd team dat het speerpunt vormt van onze internationale ambities. Je werkt samen met je collega?s aan innovatieve projecten voor ons pakket MultiPress vanuit het hoofdkantoor te Brugge. Van het meebouwen van een nieuwe applicatie tot het upgraden van een bestaand platform, bij Dataline krijg je een uitgebreid en gevarieerd takenpakket. In jouw gereedschapskist: PHP, SQL en PHP frameworks. Met deze kennis breng je al je projecten tot een goed einde. Je overlegt en werkt samen met je collega?s volgens de scrummethodologie.
- Digital Marketing Co”rdinator
Ben jij een digitale duizendpoot met technische en creatieve skills en gepassioneerd over alles wat gelinkt is met het online gebeuren? Als Digital Marketeer ben je verantwoordelijk voor de online communicatie en conversie optimalisatie van de Dataline website. Daarnaast streef je naar een optimale online bezoekerservaring en zorg je samen met het marketingteam voor de juiste inzet van de online marketing kanalen. Jouw focus ligt specifiek op volgende vakgebieden: database marketing, remarketing, marketing automation, Linkedin, e-mail campagnes, analyses & online reporting.
- Senior Frontend Developer
Ben jij de Superhero op het vlak van Javascript, CSS en HTML? Blaas jij gebruikers van de sokken met een Frontend die ‚cht tot leven komt? Ga je enkel voor de perfecte user experience? Is pixel-perfect jouw ?middle name?? Dan is Dataline op zoek naar jou!
Als Frontend Developer maak je deel uit van een getalenteerd team dat het speerpunt vormt van onze internationale ambities. Je staat mee aan de wieg van het cloud development project waarmee we met MultiPress, d‚ #1 business software voor de grafische industrie in de Benelux, Europa willen veroveren.
- Frontend Application Developer
Hou jij van nieuwe uitdagingen? Kennen HTML, CSS en Angular geen geheimen meer voor jou? Is pixel-perfect jouw ?middle name? Dan is Dataline op zoek naar jou!
Als Frontend Developer maak je deel uit van de afdeling Development. Je staat mee aan de wieg van een nieuwe cloudontwikkeling van ‚‚n van onze applicaties. De bedoeling is om een webclient te cre‰ren voor onze bestaande business-to-business omgeving.
- Stagairs
Ben jij de stagiair Informatica, Digital Marketing, Event Marketing of Grafimediabeleid die we zoeken? Solliciteer dan meteen en maak je klaar om enorm veel plezier te beleven!
- Meer openstaande vacatures te ontdekken via https://dataline.recruitee.com/"
Secure Code Warrior BVBA;Baron Ruzettelaan 5, bus 3;8310;Assebroek;www.securecodewarrior.com;Melanie Muller;;498404625;"Secure Code Warrior is the secure coding company.

Secure Code Warrior makes secure coding a positive and engaging experience for developers as they increase their skills. We guide each coder along their own preferred learning pathway, so that security-skilled developers become the everyday superheroes of our connected world.
?
We succeed through a human approach that uncovers the secure developer inside of every coder - helping development teams ship quality code faster, so they can focus on creating amazing, safe software for our world.";Various projects for our secure coding gamified platform.
Savaco;Beneluxpark 19;8500;Kortrijk;www.savaco.com;Arne Vanroose;;56260361;"Savaco is een lokale IT-topspeler met een gezonde groeiambitie die toonaangevende bedrijven in Vlaanderen begeleidt in hun digitale transformatie. En dit gaat breed: van het opzetten van netwerken en systemen tot het beveiligen van de IT-infrastructuur. Maar daarnaast bouwen we ook PLM-, CAD- en MS-applicaties en doen we aan IOT en Data Engineering.
Elke dag bouwen we als een sterk team van 180+ bekwame en enthousiaste medewerkers aan onze stevige en kwaliteitsvolle reputatie die op 30 jaar expertise is gefundeerd.

Wat maakt ons zo sterk?

Kwaliteitsgericht werken dragen we in het hoogste vaandel. We willen impact cre‰ren bij onze klanten door hen op een excellente manier te gidsen langs de digitale horizon. We gaan elke ambitieuze technologie-uitdaging aan en slaan nieuwe digitale wegen in.

Tegelijkertijd zorgen wij voor een warme, familiale omgeving waar collega?s elkaar kennen en respecteren. Elke Savaco medewerker kan ook rekenen op persoonlijke aandacht als medewerker ‚n als mens. We stippelen een groeiplan uit dat in staat stelt grenzen te verleggen maar zonder persoonlijke ambitie of work-life balance uit het oog te verliezen.";Bachelor / Master Industriewetenschappen / ICT / Informatica / Elektronica / Elektromechanica / NMCT
oXya Benelux NV;President Kennedypark 3a;8500;Kortrijk;http://www.oXya.com;Martine De Koninck ( administratie)   Martin Van Den Abeele  ( ivm stagemarkt) ;;056 23 43 10;Oxya (http://www.oxya.com/) verzorgt voor hun klanten het technische beheer van SAP datacenters, gaande van hardware en netwerkinfrastructuur tot en met de applicatiesoftware. Omdat de beschikbaarheid van hun data voor deze klanten natuurlijk van het grootste belang is, zorgt monitor-software voor de werking van de datacenters, zodat eventuele  problemen tijdig gedetecteerd en hersteld kunnen worden, liefst nog voordat de klant er iets van gemerkt heeft. Om deze monitoring effici‰nter te kunnen doen, wil Oxya beroep doen op Data Mining technieken, zodat problemen automatisch gedetecteerd en voorspeld kunnen worden. In deze stage pas je verschillende Data Mining algoritmes toe op de logdata van Oxya.  Samen met de software analysten kan je kennis maken en je verdiepen in het opkomende domein van data science, je kan er kennis maken met de werking van grote, state-of-the-art data centers.  Oxya is immers een bedrijf met zowel een aantal grote internationale,  als Vlaamse klanten (bv. Carrefour, HUBO, Sodexo, Elia, Decathlon, ArcelorMittal, ?).;Good experience in Linux ( or open Source software) servers Good experience in Windows servers Interested in landing a job as a data scientist and working in a state-of-the-art IT technology environment. Have a clear, logical mind with a practical approach to problem solving and a drive to see things through to completion
AGO Jobs & HR;Wolvenstraat 23;8500;Kortrijk;www.ago.jobs;Kristof Desmedt;;32476810753;"AGO Jobs & HR is an HR services company. With its dedicated team of authentic and optimistic people it stays close to the customer and focuses on valuable & sustaining relationships.
AGO Jobs & HR is een dynamisch Belgisch familiebedrijf gebaseerd in Kortrijk en de vijfde speler op de uitzendmarkt. Wij hebben een inhouse IT afdeling waar we al onze systemen en platformen voor het uitzendwerk zelf ontwikkelen met de nodige ambitie voor groei en blik op de digitale toekomst.";PROJECTBESCHRIJVING - AGO Jobs & HR werkt momenteel aan een innovatief HR-platform op basis van microservices waarmee de optimale matches tussen uitzendkrachten en klanten kunnen gevonden worden. Daarnaast zullen ook concurrerende HR-kantoren (tegen betaling) en hun klanten gebruik kunnen maken van het platform, waardoor een nieuw ecosysteem binnen de markt gecre‰erd zal worden. Artifici‰le intelligentie and machine learning zijn hier even ontontbeerlijk als flitsende designs en top user-interfaces. Kortom, heel wat verschillende profielen kunnen hierop worden ingezet.
Damatec BV;Nieuwpoortstraat 11;8500;Kortrijk;Www.damatec.be;Lies verbauwhede;;499364157;Damatec is gespecialiseerd in MES - software, business flow automatisatie en business intelligence binnen de maakindustrie. Wij helpen onze klanten hun productieprocessen effici‰nt ient en real-time te stroomlijnen en automatiseren. Damatec is een dynamische Kortrijkse onderneming, gekenmerkt door een hands - on aanpak, een grote mate van flexibiliteit zowel in product, dienstverlening als werking en zeer toegankelijk met een lichtrijk, modern kantoor in het centrum van Kortrijk. ;"- Front end developer
- .Net developer"
ILVO;Ankerstraat 1;8400;Oostende;https://ilvo.vlaanderen.be;Wim Allegaert;;059 56 98 62 ;Het Instituut voor Landbouw-, Visserij- en Voedingsonderzoek (ILVO) is een onafhankelijk wetenschappelijk onderzoeksinstituut van de Vlaamse overheid. Het krijgt van die overheid de opdracht mee te werken aan de verduurzaming van de landbouw, visserij en agrovoedingssector. De afdeling Visserij en aquatische productie van ILVO verzamelt informatie over visbestanden en hun plaats in het ecosysteem. ILVO ondersteunt en adviseert ook de visserijsector in hun streven naar duurzaam vissen. ;"Voor het beheer en de verwerking van de visserij gerelateerde business data worden diverse software tools door het software team in huis ontwikkeld. Het multidisciplinair wetenschappelijk onderzoek vereist een brede waaier aan vernieuwende software oplossingen. Voorbeelden van toepassingen die de voorbije jaren werden ge‹mplementeerd zijn: web en windows data management toepassingen, beeldanalyse toepassingen (machine learning, neural networks & deep learning), geografisch informatiesystemen, application programming interfaces, big data management, rapporterings tools, ...

ILVO is op zoek naar een student toegepaste informatica met een brede interesse. Een persoon die geen koudwatervrees heeft voor nieuwe technologi‰n maar integendeel, enthousiast en zelfstandig, de mogelijkheden van nieuwe domeinen wil verkennen. 
Tijdens de stage zal er een proof of concept worden ontwikkeld waarbij de stagiair instaat voor de realisatie van het volledige software proces: analyse, ontwikkelen, testen & documenteren. Hij kan hierbij rekenen op een uitgebreide begeleiding van het IT-team. "
Limecraft;Sint-Salvatorstraat 18b 301;9000;Gent;https://www.limecraft.com;Maarten Verwaest;;93301323;Limecraft is actief in de audioviduele sector. Het is een online platform voor creatieve professionals, waarmee ze videomateriaal opslaan, uitwisselen en distribueren. Ons bereik gaat van individuele vloggers en podcasters, tot de grootste producers wereldwijd. Onze ambitie is om op termijn de grootste backbone te worden van AV productie.;We zoeken technische profielen (software ontwikkeling, systeembeheer, testbeheer) en commerci‰le profielen (opzetten van geautomatiseerde marketing, beheer van de online sales processen).
ML6;Esplanade Oscar Van De Voorde 1;9000;Gent;https://www.ml6.eu/;Kaat Van Doren;;04 76 284 124;"We work on ML projects to make a positive impact.

Our mission is to boost progress with people, technology and innovation. The creative, diverse and exceptional teams of ML6 make a positive impact for our clients and the tech community by providing cutting-edge and high quality services in a trustworthy and responsible way.

We are a team of purpose-driven data & machine learning experts who have been driving value creation and operational efficiency through self-learning systems since 2013.
";"*Profielen*
ML engineers, data engineers, software engineer
Solutions engineers, customer engineers
Information Management

*Projecten*
Smart mirror
Transfer learning in time series
Library app
Intelligent Illustrator
Drone imagery
Email clustering
And any project you want to challenge"
Digital up ;Baron Ruzettelaan1, bus 0.3;8310;Brugge;www.digitalup.be;Steven Sanders;;3250396862;Digital Up is een Brugs marketingbureau dat zich voornamelijk specialiseert in de online kant van het marketingverhaal. Struggle je met alles wat digitaal en online is? Doe dan een beroep op Digital Up. Zij tillen jouw bedrijf naar een hoger digitaal niveau. Zij toveren jouw website om tot een dynamisch digitaal platform, verbonden met alle sociale media. Je ontvangt digitaal marketingadvies op maat dankzij de in-house knowhow. Van website tot Facebookpagina. Van eenvoudig onderhoud tot het volledige beheer. Van content tot video. Hun ervaren experten, gedreven marketeers en digital natives hebben vast en zeker een oplossing voor jouw (digitale) probleem.;Wil jij bedrijven helpen met voor hun een digitale oplossing te bieden. Je denkt mee aan de ideale oplossing voor onze klanten. Of het nu gaat van een eenvoudige webpagina tot een uitgebreide applicatie op maat. Voor elk budget van de klant ga je opzoek naar de ideale digitale oplossing. Je designt custom & template websites voor de klanten. Databases, webdevelopment en/of app development heeft geen geheimen voor je. 
Brug-IT VZW;Nijverheidsstraat 7;8310;Brugge;https://brugit.be;Sabrina Poelvoorde;;50683038;"ls IT-bedrijven uit Noord-West-Vlaanderen bundelen we met Brug-IT onze krachten.
Het doel? Onze regio op de IT-kaart zetten!
Samen kunnen we grotere projecten realiseren en zijn we een toegankelijk aanspreekpunt om bedrijven te ondersteunen op IT-vlak. Bovendien organiseren we ook evenementen, vormen we een informatieplatform en gaan we uitdagende IT-vraagstukken aan.";We bieden verschillende projecten van onze leden aan.
Studio Emma;Ten Briele 10, bus 8;8200;Sint-Michiels;www.studioemma.com;Liesa Vandenbussche;;+32 (0) 51 61 00 20;"Hi! Wij zijn Studio Emma. Based in Brugge & Kortrijk!

Een full stack web agency dat volop inzet op de online ambities van haar klanten. Wil je starten met een E-commerce website of je webshop verder uitbouwen? Wil je je data op een effici‰ntere manier gaan beheren of gewoon een nieuwe wending geven aan je online verhaal? Studio Emma will get you there!

Met ondertussen 30 collega's (gaande van Project Managers tot Designers tot Developers) maken we klanten zoals Fun, Roularta Media Group, Tom&Co, Zelfbouwmarkt, Aeromoov... gelukkig. Kortom: als het gaat om het digitaliseren van je business ben je bij Studio Emma in goede handen.

Studio Emma in een handvol seconden? Check it out: https://vimeo.com/295343599

Maar ook als stagiair of werknemer ben je in goede handen! We zijn namelijk op zoek naar nieuwe collega's om ons team te versterken. Een stageplek is daarvoor de beste sollicitatie: niet enkel voor ons maar zeker ook voor jou. We maken er sowieso een boeiende stageplek van, daar kun je op rekenen!

Groetjes, Liesa (HR/Marketing Verantwoordelijke @ Studio Emma)
";Onze core business zijn Magento- en Pimcore projecten, maar misschien wordt jouw stage een uitdagend intern project. In overleg met je ambities maken we er een boeiende en leuke stage van!
ConXioN;Hoogstraat 134;8540;Deerlijk;https://www.conxion.be/newhome/;Tamara Clabau;;+32 56 73 11 21;"ConXioN is een IT-bedrijf van 100 werknemers met partnerships zoals Microsoft, HP, Cisco e.a. We zijn een ambitieuze IT-partner waar innovatie, kwaliteit en groei centraal staan. We bieden IT-diensten aan bedrijven zowel op vlak van infrastructuur als modern workplace-oplossingen.
Gezien onze groei zoeken wij gemotiveerde stagiairs om ons team te versterken. 
Wat vinden wij belangrijk? Werkplezier, teamsfeer, kwaliteit en innovatie!
Heb jij interesse om deel uit te maken van een collegiaal, dynamisch en vooruitstrevend IT-bedrijf met opleidingsmogelijkheden, een fitness en een gunstige work-life balans in Deerlijk? Maak vrijblijvend kennis tijdens een speeddate! 
";"ConXioN bestaat uit de volgende teams:

- Service Desk
- System Engineers
- Managed Services & Security
- Business Consultancy
- Projectmanagement
- Customer Success & Sales
- Marketing
- HR

Wij focussen op de volgende zaken:
- Cloud
- Services
- Security
- Connectivity
- Mobility
- Applications (M365)
- Experience"
kmo-software;Roterijstraat 71;8790;Waregem;www.kmo-software.be;Jelle De Bruyne;;0471 70 57 84;kmo-software is een jong, dynamisch en innovatief bedrijf dat allerhande softwareoplossingen biedt voor kmo?s;"Wat als je als stagiair meteen ervaring kan opdoen die de rest van je carriŠre zal vormen? 
Ben jij:

CREATIEF ?                          INNOVATIEF ?                       AMBITIEUS  ?

Werk dan met ons mee aan de verdere groei van ons jong bedrijf. 
Gelegen op de rand van Waregem, bieden wij een toffe stageplaats in een familiale sfeer, met leuke collega?s en de kans op een vast contract.
We ontwikkelen software, aan de hand van de  nieuwste technologie‰n, om zo performante en visueel aantrekkelijke oplossingen aan te bieden aan KMO?s.

desktop-, web- & mobile apps
C#, Xamarin, Angular, WPF, .net, .net core, azure, visual studio, git"
Intracto NV;Zwijnaardsesteenweg 312 / 0401;9000;Gent;www.intracto.com;Emely Keereman;;479757140;"Intracto is a digital agency that offers powerful digital solutions: measurable, well thought-out and technical superior.

The multidisciplinary project teams possess all the design, development, strategic and e-marketing skills that increase the revenue of its clients. Sharing knowledge with clients and communities, Intracto strongly believes in using and contributing to open-source software.";"We zijn continu op zoek naar talent dat samen met ons wil groeien op een van onze campussen in Belgi‰ en Nederland. Zin in een technische stage waar je ‚cht iets aan hebt? Op weg naar een bloeiende carriŠre als developer, projectmanager of digitaal strateeg bijvoorbeeld? Dan ben je bij Intracto aan het juiste adres. 

Even voorstellen: Intracto is een allround digital agency dat maatwerk aflevert voor klanten als Brussels Airport, Volvo & Hypotheek.winkel. Niet alleen op vlak van marketing, communicatie en strategie maar ook op een hoog technisch niveau.

! Werk mee aan echte projecten
Bij Intracto geloven we in evolueren, verbeteren en een hands-on aanpak. Daarom zal een stage bij ons je meenemen in ‚chte projecten waarbij je opdracht bestaan uit het analyseren, ontwikkelen en opleveren van specifieke maatwerkmodules en -features.

Aan het einde van je stage wandel je buiten met een waaier aan competenties die je goed van pas zullen komen, zoals: 
- analyseren & meedenken op zoek naar mogelijke oplossingen;
- klantcommunicatie & meelopen in meetings;
- effectief development, rekening houdend met specifieke interne guidelines;
- werken met project-tools zoals JIRA;
- gebruik van MySQL, GIT, Bamboo, diverse API?s ?

! 40 collega's helpen je (digitaal) verder
Om jou de nodige ondersteuning te bieden hebben we meer dan 40 getalenteerde development collega?s op onze campus. Deze specialisten richten zich vooral op de technologie‰n PHP, HTML, CSS & Javascript met behulp van diverse frameworks zoals Symfony, Drupal, WordPress, Vue ...

Tijdens je stage als webdeveloper zal je deel uitmaken van een van onze dev-teams. Dit is jouw kans om samen met hen mee te werken op een van onze vele fantastische projecten. 

Benieuwd? Kom dan langs bij Intracto op de stagemarkt. "
Skyline Communications;Ambachtenstraat 33;8870;Izegem;www.skyline.be/jobs;Julie Desmet;;+32 51 31 35 69;"Skyline Communications is the global leader in end-to-end multi-vendor network management and OSS solutions for the broadcast, satellite, cable, telco and mobile industry.
Our flagship DataMiner© network management platform, which has received various prestigious awards, enables end-to-end integration of the most complex technical ecosystems and has been deployed by leading operators around the world.";"Quality Software Developer
Cloud Developer
Full Stack Developer
Cyber Security Engineer
Angular Developer
Software System Developer"
Accenture NV;Picardstraat 11 B100;1000;Brussel;https://www.career-accenture.be/;Florence D'oreye;;3222267084;"Accenture is een toonaangevend wereldwijd bedrijf voor professionele dienstverlening en biedt een brede waaier aan diensten en oplossingen op het gebied van strategy, consulting, digital, technology, security en operations. Accenture combineert onge‰venaarde ervaring en gespecialiseerde vaardigheden in meer dan 40 industrie‰n en alle bedrijfsfuncties - ondersteund door 's werelds grootste bezorgnetwerk - werkende op het snijvlak van bedrijf en technologie om klanten te helpen hun prestaties te verbeteren en duurzame waarde te cre‰ren voor hun stakeholders. Met meer dan 450.000 mensen die klanten bedienen in meer dan 120 landen, stimuleert Accenture innovatie om de manier waarop de wereld werkt en leeft te verbeteren.
";"Bij Accenture bieden wij jou een waaier van stageprojecten aan:

- Security stage: 
Volg jij de opleiding Computer & Cyber Crime Professional of ben jij gepassioneerd door IT security? Ben jij geinteresse‰rd in een stage in een internationale context?
Accenture geeft jouw de mogelijkheid om mee te werken in een team van internationale security experts. In dit team zal je een waaier van activiteiten uitoefen, waaronder Penetration Testing, Practical Reverse engineering & Malware analysis en Security Research.
Doorheen je stage wordt jij begeleid door een coach met meerdere jaren ervaring in security. Hij maakt jou vertrouwd met onze methodologieen en technieken.

- SAP stage: 
Volg jij de opleiding ICT & Blockchain Consultant en ben je geinteresse‰rd in ERP systemen? Analyseer je graag problemen en los je deze graag op?
Accenture biedt jouw de mogelijkheid om mee te volgen in een team van internationale ERP experts. Als business analyst zal je ondermeer business processen analyseren en verbeteren met behulp van aangereikte BPM methodieken.
Ge‹dentificeerde problemen zal je analyseren en er oplossing voor vormen.
Doorheen je stage wordt jij begeleid door een coach met meerdere jaren ervaring in ERP systemen. Hij maakt jou vertrouwd met onze methodologieen en technieken.

-  AI/ML stage: 
Volg jij de opleiding Software Engineer of AI Business Professional? Ben jij geinteresse‰rd in alles wat met AI te maken heeft?
Deze stage geeft jouw de mogelijk om hands-on te experimenteren met Artifical Intelligence technologieen, zoals video analytics en face recognition, maar ook robotics. Dit om innovative concepten en applicaties te ontwikkelen voor een toegewijd Accenture programma.
Tijdens je stage zal je werken in en team van internationale AI experts. Je dagelijkse activiteiten bestaan ondermeer uit het opmaken van een functionele analyse en het ontwerpen van een design, alsook het cre‰ren van een Proof-of-Concept.
oorheen je stage wordt jij begeleid door een coach met meerdere jaren ervaring in AI. Hij maakt jou vertrouwd met onze methodologie‰n en technieken.


"
Adifo;Industrielaan 11B;9990;Maldegem;www.adifo.com;HR - Lisa Van der Meirsch;;50303286;"Tegen 2023 zullen er zo?n 8 miljard mensen op de wereld zijn. Om iedereen van voedsel te voorzien is een duurzame productie van voedingsmiddelen een echte uitdaging. Wil je wel eens weten hoe bedrijven dit aanpakken? Welke technologie‰n er zijn en welke software hiervoor ontwikkeld wordt? En wil je daar ook actief mee bezig zijn? Bekijk dan zeker het boeiende aanbod aan stages bij Adifo!
 Wij zijn wereldwijd actief in software tools voor de voedingsindustrie. Als trotse marktleider sturen wij vanuit ons hoofdkantoor in Maldegem een heel team van internationale medewerkers aan. ";"Adifo is met z?n 600 klanten in meer dan 60 landen een trotse marktleider in de wereld van strategische software tools voor de voedingsindustrie. Ons softwarepakket BESTMIX© garandeert dat voedingsmiddelenproducenten hun producten aan de beste kwaliteit maar ook tegen de laagste kostprijs kunnen ontwikkelen.

Je bent een student toegepaste informatica of graduaat programmeren.

Deze stage biedt je een heleboel kansen en uitdagingen:
-	Je komt terecht in een team van developers 
-	Onze consultants en klanten rekenen op je om een kwalitatieve bijdrage te leveren aan huidige projecten over de hele wereld   
-	Met je hands-on-mentaliteit  krijg je de vrijheid om onafhankelijk te werken
-	Je kan altijd steunen op ervaren collega?s"
Barco;Beneluxpark 21;8500;Kortrijk;jobs.barco.com;Lore Vandevyvere;;056 23 34 64;"Barco is een internationaal technologiebedrijf die visualisatie oplossingen aanbiedt voor diverse markten. Je vindt ons in cinemazalen, op evenement, in bedrijven, scholen & ziekenhuizen. 
Onze oplossingen zijn meer en meer een combinatie van hardware, software & services. 
Ons hoofdkantoor bevindt zich in Kortrijk, maar we zijn wereldwijd actief met een team van 3600 medewerkers.
Wereldwijd vind je ongeveer 400 IT'ers terug in onze organisatie. 

Meer lezen over Barco? Surf naar www.barco.com";"Wij zoeken steeds gemotiveerde IT studenten om 1 van onze development teams te komen vervoegen. Je werkt daarbij op een specifiek (research) project en/of werkt mee in de development van een software oplossing binnen Barco. De projecten worden in de zomer van 2021 gedefinieerd & omschreven op onze jobsite jobs.barco.com onder het luikje ""Students""."
TVH PARTS NV;Brabantstraat 15;8790;Waregem;werkenbijTVH.be;Tamara Naert;;056 43 42 20;"TVH Parts is wereldwijd een gerespecteerde als leverancier van onderdelen in de sector van de heftrucks en hoogwerkers. Om de vele uitdagingen tegemoet te komen kunnen wij rekenen op een IT afdeling van meer dan 200 man die de drijvende kracht is achter onze internationale organisatie.

Om deze doelen te realiseren rekenen we op een volledige agile omgeving met zelfsturende teams waar developers, analysten, testers nauw samenwerken om custom software te ontwikkelen. We weten dat investeren in young potentials van groot belang is onze sterke groei te blijvenverzekeren.

Elk jaar bieden we dan ook stages aan om studenten kennis te laten maken onze state of the art IT-architectuur en de manier waarop software-ontwikkeling op grotere schaal wordt aangepakt. We maken ons sterk dat heel wat van deze stagiairs vandaag tot onze collega's kunnen rekenen.

Als stagiair wordt je nauw opgevolgd en begeleid maar maak je daarnaast ook echt deel uit van de squad zodat je de job echt kan beleven en een realistisch beeld krijgt.

Wil je meer weten over onze stage-opportuniteiten?
Kom dan zeker even langs voor een gesprek!
";software engineer, functioneel analyst en security administrator 
Alpro C.V.A.;Vlamingstraat 28;8560;Wevelgem;https://www.alpro.com/;Pieter Rigole;;+32 477 59 69 02;"Alpro, the European plant-based pioneer of Danone, brings health through food to as many people as possible by producing healthy, tasty plant-based food and drink in a way that respects the planet. One Planet. One Health. 

Our delicious plant-based products are made from soya, almonds, hazelnuts, cashew, rice, oats or coconut. 
We want to invite people to join the movement for a healthier world and thanks to our efforts to combine social and environmental goals with financial success, Alpro is B Corp certified.

Join our vibrant teams and feel the Alpro vibe of positivism and openness, collaboration and passion for quality. 

";For the Alpro-Danone Supply Chain organisation, we have multiple research projects on use of 4.0 technology within our customer service, warehouse, logistics and planning processes (AI, big data, reporting...). We need an intern that can investigate what solutions are avialable on the market and help us prepare a project for implementing these solutions in our current IT landscape.
dotOcean nv;Gistelsesteenweg 294 bus 205;8200;BRUGGE;www.dotocean.eu;Sebastien Deprez;;050/68 30 54;dotOcean is een jong en groeiend technologiebedrijf gespecialiseerd in software technologie voor autonome drones en AI voor de maritieme en defensie industrie. We zijn gevestigd in Brugge en cre‰ren de nieuwste technologie‰n voor onze internationale klanten. dotOcean bouwt mee aan de volgende autonome water drones en producten die bodemstructuren onderzoeken op waterdiepten van meer dan 4000m. Creativiteit en ondernemerschap met een sterke focus op de groeiende maritieme industrie is waar dotOcean voor staat waarbij respect, vertrouwen en een goede communicatie kernwaarden zijn.;Wens je mee te werken aan het ontwikkelen van zwermtechnologie voor het bedienen van landrobots of het aansturen van een autonome boot op zee? Kom dan zeker bij ons langs. We zijn volop ook op zoek naar gedreven stagiairs met interesse in diverse technologie‰n gaande van Machine Learning en AI over DevOps (CI/CD), databases en netwerktechnologie‰n tot IoT en (web/app) programmatie in verschillende softwaretalen.
Starring Jane BV;Dendermondsesteenweg 95A/001;9000;Gent;www.starringjane.com;Melissa Vande Velde;;09/2358282;Starring Jane cre‰ert waarde voor digitale projecten door Strategie, Implementatie en Activatie te combineren. Op die manier zijn we een partner waarbij je terecht kan voor het hele digitale verhaal. Van A tot Z.;"PHP profiel
De stagiair zal meedraaien in het webapplication team en meewerken aan de projecten die op dat moment uitgevoerd worden door dit team. De projecten gaan van Wordpress configuratries tot volledige custom made Laraval applicaties voor onze klanten. De stage zal een gevarieerd aanbod geven van alle programmeer uitdagingen. We zien de stagiair als onderdeel van het team. Dat betekent dat de stagiair volledig meedraait, natuurlijk met de benodigde ondersteuning van onze senior developers.
"
Ocular BV;Hille-Zuid 1B;8750;Zwevezele;www.ocular.be;Sofie Mattheeuws;;51588444;"Belevingen. Ervaringen. Ze zijn meer waard dan eender welk bezit. Ze blijven ons bij. Veel langer dan het meest doordachte verkoopgesprek. Veel langer dan de meest uitgekiende presentatie. Ocular bedenkt en realiseert zulke ervaringen. Hoe? Door geweldige idee‰n en prachtige verhalen te combineren met de strafste interactietechnologie en de beste contextbewuste software. Zo maken we producten, diensten en verhalen uniek, spannend en meeslepend. Zo veranderen we musea, bezoekerscentra, commerci‰le ruimtes, beursstanden of training center in belevingen en ervaringen. Zo informeren we op een manier die verder gaat dan wat traditionele kanalen bieden ‚n kunnen bieden. Zo leggen we verbindingen die mensen nooit vergeten. Zo cre‰ren we impact.
";"We zijn op zoek naar een dynamische student(e) met kennis van front-end en/of back-end die van een uitdagende en gevarieerde opdrachten houdt. Je bent in staat om creatieve concepten om te zetten in mooie en unieke code/interfaces. Je experimenteert graag met de nieuwste technologie‰n en devices. In Ocular werk je mee aan de diverse aspecten van de verschillende applicaties. Geen nepopdrachten maar bij ons krijg je de kans om te werken aan de echte projecten. En die zijn heel uitlopend: van een kindergame voor een museum tot de ontwikkeling van een interactieve carwash. Net dat maakt deze stage zo boeiend en uitdagend. Krijg je nu al zin om erin te vliegen, laat ons dan zeker iets weten.
"
Cevi NV;Bisdomplein 3;9000;Gent;www.cevi.be;Nathalie Heymans;;09/264.07.00;Cevi/Logins is een grote speler op de Vlaamse IT-markt, gespecialiseerd in het bouwen van moderne en betrouwbare informaticasystemen, vooral voor overheidsinstellingen (provinciebesturen, gemeenten, OCMW?s, zorgbedrijven, hulpverleningszones ?) maar ook voor andere bedrijven. Cevi/Logins blijft op de eerste plaats een softwarehuis ten dienste van de lokale besturen en dit vooral voor de automatisering van hun processen en diensten.;"Junior .NET Ontwikkelaar
Taakinhoud
Je ontwikkelt toepassingen gebaseerd op onze in-house technology-stack:
.Net (framework/standard/core), MS SQL-server, Angular, bootstrap.

Een overzicht van je belangrijkste taken en verantwoordelijkheden:

Je bouwt toepassingen voor onze klanten en voor intern gebruik
Het betreft nieuwe ontwikkelingen en/of modernisering van bestaande toepassingen
Je onderhoudt deze toepassingen gedurende hun levensduur
Je maakt hierbij gebruik van een ruime bibliotheek aan bestaande componenten uit het Cevi/Logins-arsenaal en kunt rekenen op de ondersteuning van collega?s en architecten
Je maakt technische analyses van de functionele opdrachten die je krijgt
Je documenteert de door jou ontwikkelde software
Je neemt deel aan het testen van je eigen code en die van je collega?s
Je biedt 3de-lijnsondersteuning aan klanten en productbeheerders voor de door jou ontwikkelde software
Je ondersteunt de verkoopploeg bij het opstellen van functionele specificaties

Jouw profiel

Je bent assertief en communicatief, een teamspeler
Je beschikt over een sterk analytisch denkvermogen
Je bent meertalig (Nederlands, Engels en Frans)
Je werkt klantgericht zonder de commerci‰le doelstellingen uit het oog te verliezen
Je hebt affiniteit naar.NET back-end ontwikkeling
Je hebt interesse om je te verdiepen in frameworks zoals Angular
Je kent het belang van sterk database-design.
Je hebt kennis van SQL server.
Je hecht veel belang aan het gebruik van best practices, waarbij je security by design als een evidentie beschouwd.
"
Sentia Belgium NV;Denen 157;9080;Lochristi;www.sentia.com;Pieter Van Huffel;;92742900;We are Sentia. We believe the digital world is at the core of any business, so we take extreme ownership of managing continuity, performance and innovation, in all aspects of our customers application landscape & IT.;"Continuity Engineer Linux
Continuity Engineer Windows"
Duotecno Bvba;Ten Breile 18.1;8200;Sint-Michiels;www.duotecno.be;Mario Scheldeman;;32496282627;"Duotecno produceert al meer dan 18 jaar kwaliteitsvolle, innovatieve domotica-oplossingen. Je bedient vanop afstand de verlichting, elektrische toestellen, rolluiken, audio, video en alarm in je woning of gebouw.
Bovendien zorgen wij voor een uniforme look in elk project. Elk designproduct kan volledig in de muur|plafond ge‹ntegreerd worden met dank aan de gepatenteerde inbouwarmaturen van ons zusterbedrijf Xillo Trimless Solutions. Dit gaat zowel om onze schakelaars, afdekramen, audio speakers, verlichting, touchscreens, bewegingsdetectoren, alarm?
We kunnen onze producten in de muur integreren, zodat ze naadloos in de muur zijn weggewerkt, maar we kunnen ze ook volledig integreren in de afwerking van de muur. De armatuur (draagconstructie van het product) wordt eenvoudig weggewerkt in het gestucte muur|plafond, wat zorgt voor een aanzienlijke kwalitatieve meerwaarde, zowel esthetisch als functioneel.
Wij zijn een gedreven bedrijf die continu mee-evolueert met de innoverende markt met hoe we onze geavanceerde domotica-oplossingen n¢g beter kunnen maken.
";personen die gebeten zijn door automatisering, en waar de sky not the limit is. Wij zijn al jaren een gevestigde waarde op de domotica markt. Sinds kort hebben we in ons een gamma een gateway waar er nog volop wordt op ontwikkeld (Homekit, smappee , open hab , http post/get, ...). Zie je jezelf testopstellingen maken met iot devices , Open hab ,mogelijkheden uitzoeken, of code schrijven voor ...........   
Comma BV;Torhoutsesteenweg 411;8210;Zedelgem;https://www.brandstrategists.be/;Maxim Bogaert;;050 81 47 90;"comma, brand strategists is een strategisch marketing- en communicatiebureau met een sterke focus op ondernemerschap. In co-creatie met onze klanten willen we impact cre‰ren en groei stimuleren voor KMO's en organisaties in transformatie. Ons doel is om tot een uitzonderlijke co-creatie te komen tussen onze klanten en onze strategische marketeers, design thinkers en digitale experts. Met een duidelijke focus op strategie en effici‰nte branding-ecosystemen, werken onze in-house experts met passie en toewijding aan strategische marketing en communicatie voor onze klanten.

comma, brandstrategists brengt bedrijven en organisaties naar een hoger niveau. We stellen onze expertise ten dienste van jouw merk. Van groeistrategie naar merkenstrategie, van digitale transformatie naar innovatie, van marketing- en communicatieplan naar storytelling & design. In co-creatie gaan we voor een succesvol resultaat.

En met een trotse knik naar ons diep Belgisch wielererfgoed, we fly high and enjoy the ride! Elke weg zal altijd verschillen en onverwachte wendingen nemen, maar we genieten echt van de reis die onze klanten en onszelf naar nieuwe hoogten brengt.
";"Comma, brand strategists is een vooruitstrevend bedrijf met een duidelijke focus op  marketingstrategie en communicatie.

1.	Strategische profielen

Om de strategische visie van een bedrijf of organisatie tastbaar te maken en  producten/diensten op een opmerkelijke manier in de kijker te zetten, beroepen we ons op verschillende strategische workshops. Workshops zoals why-how-what (golden circle), positionering (brand essence), customer journey (from answer to activate) enz.
 
Jouw taak:
- Voorbereiden workshops
- Opstellen online surveys
- Data-analyse en interpretatie van de resultaten
- Verwerken resultaten in presentatie
- Uitvoeren concurrentie-analyse
- Rapportering
- Ondersteunen van / participeren aan workshops
- Evalueren workshops en verbeteringsvoorstellen formuleren
- Marktonderzoek strategische modellen

2.	Analytische profielen

Comma, brandstrategists lanceert elk jaar een grootschalig marktonderzoek bij Vlaamse ondernemers met betrekking tot hun marketingcommunicatie-beleid. Deze peiling richt zich tot de ondernemer-zaakvoerders, marketeers, HR-verantwoordelijken en/of communicatieverantwoordelijken van kleine en middelgrote bedrijven. De focus op deze specifieke bedrijvengroep maakt deze survey uniek. Elk jaar worden de resultaten gebundeld en grondig geanalyseerd, waardoor nieuwe inzichten en trends uitgelicht kunnen worden en de bevindingen een relevant inzicht geven in de manier waarop de Vlaamse kmo's investeren in hun bedrijfscommunicatie.

Jouw taak bij comma?
- Je finetunet samen met het team de vragenlijst.
- Je staat in contact met kmo's en engageert hen om mee te werken aan dit onderzoek
- Je analyseert en interpreteert de verzamelde data.
- Je vergelijkt de resultaten met die van vorige jaren en gaat op zoek naar tendensen.
- Je vergelijkt de resultaten met gelijkaardige studies op de markt voor grote ondernemingen.
- Samen met het team ontwikkel je een mooi rapport dat de bevonden resultaten op een overzichtelijke manier samenvat.

3.	Profiel met gezonde interesse in HR

Comma, brand strategists komt naar buiten met een nieuw, innovatief verhaal, onder een nieuwe naam. In het kader hiervan lanceren we een online tool die het mogelijk maakt te polsen naar de well-being van de mens binnen een organisatie, deze in kaart te brengen en te koppelen aan specifieke oplossingen met bijhorende gedefinieerde actiepunten. Dit in samenwerking met verschillende kwalitatieve partners en tevens experten in hun vakgebied. Deze kruisbestuiving tussen verschillende kennisvelden maakt dit project vernieuwend, interessant en uniek.
 
Het doel is een meetintrument verder uit te bouwen binnen de well-being in bedrijven zodat bedrijven kunnen bekijken hoe ze jaarlijks scoren en welke `gap' ze nog moeten overbruggen. Aan de hand van de diverse submetingen weet het bedrijf op welke punten ze beter moeten scoren en kunnen ze na een jaar hun groei gaan vaststellen.
Jouw taak:
 
-Binnen een innovatief gegeven omkadering brengen voor een nieuw onderzoek, vanuit een human approach
-Evidence based: wetenschappelijke literatuur gebruiken voor een stevige onderbouw
-Meetbaar framework verder opzetten
-Samenwerken met verschillende partners binnen dit project 
-Bepalen van actiepunten per gedefinieerde score op de barometer 
-Opstellen en finetunen van deze barometer 
-Doelgroepbepaling 
-Marketingactie 
-Data-analyse en interpretatie 
-Rapporteren 
- Nauwe betrokkenheid bij verdere opvolging


4.	Creatieve profielen

Comma, brand strategists bestaat uit een team van design thinkers die constant bezig zijn met het visueel vorm geven van een merk met als doel deze sterk te vermarkten. Van concept tot moodboards tot uitwerking van logo?s, stijlen, animaties, website designs, communicatie afgeleiden, ?

Jouw taak:
 
-Brainstormsessies bijwonen & gericht mee helpen nadenken 
- Moodboards opstellen
- Logo ontwikkeling
- Website design in XD
- Afgeleiden voorzien
?
"
EY Belgium;De Kleetlaan 2;1831;Diegem;www.eyjobs.be;Nina Delvaulx;;479320540;"At EY, we?re dedicated to helping organizations solve their toughest challenges and realize their greatest ambitions - from start-ups to Fortune 500 companies ? and the work we do with them is as varied as they are.
Through our four service lines ?ÿAssurance, Consulting, Strategy and Transactions, and Tax ? we help our clients capitalize on transformative opportunities. We also help them fulfill regulatory requirements, keep investors informed and meet the needs ofÿallÿof their stakeholders. And in a fast-changing world, we give them the support they need to be effective today and create long-term value for tomorrow.";"As a global leader in assurance, tax, transaction and advisory services, we hire and develop the most passionate people in their field to help build a better working world. This starts with a culture that believes in giving you the training, opportunities and creative freedom to make things better. This is what makes us different and renders working here a unique, lifetime experience.
We provide the scale, teams, and the tech. We will show you what?s possible, so you?ll see opportunities where others see challenges. With our help, you can make a meaningful impact, your way. A career as unique as you are. The exceptional EY experience. It?s yours to build."
AZ Sint-Jan Brugge-Oostende;Ruddershove 10;8000;Brugge;www.azsintjan.be;Helga De Neve;;050 452246;"Zoek je een stageplaats in een sociale, maatschappelijke omgeving met zeer veel technologische uitdagingen? Bekijk dan zeker de mogelijke ICT-stageplaatsen in het AZ Sint-Jan Brugge-Oostende. ICT is een onmisbare technologie voor dit zeer groot algemeen ziekenhuis met zijn 3 campussen. Het ICT-departement telt een 60-tal ICT-medewerkers in verschillende gespecialiseerde teams. Ben je gebeten door BI-ondersteunende tools, zoek je liever je ding in het ontwikkelen van drempelverlagende applicaties, droom je ervan security-specialist te worden of is voor het contact met de eindgebruiker belangrijk en wil je je vervolmaken in de rechtstreekse eindgebruikersondersteuning? Misschien ben je meer geboeid door de sterke evolutie naar de Cloud, de Microsoft 365 platformen. Of misschien droom je ervan netwerkspecialist te worden. In het AZ Sint-Jan werken we op al die domeinen en we bieden meerdere uitdagende stageplaatsen aan met een goede begeleiding bij iedere stage-opdracht.

We garanderen dat jullie met een stage- of eindwerk in ons ziekenhuis echt kan uitpakken op je CV maar ook mooie kansen krijgt in het ziekenhuis voor latere tewerkstelling.

";"1) Monitoring: In ons ziekenhuis is een realtime monitoring van onze ICT-infrastructuur cruciaal.
De technologische ontwikkelingen op dat vlak zijn de laatste jaren enorm ge‰volueerd.
Je staat in voor het ontwerp, de technische keuzes en POC van ons NEXT GEN monitoring platform.

2) KUBERNETES: Ons ziekenhuis is uitgerust met verschillende webservers en bijhorende -applicaties. Het merendeel is extern ontwikkeld maar we ontwikkelen ook zelf strategische applicaties.
De technologie is bij ons onvoldoende bekend en we willen een testomgeving opzetten waarmee we de voordelen van deze technologie kunnen verkennen.
Je staat in voor het ontwerp, de technische keuzes en POC-implementatie van ons NEXT GEN Kubernetes platform.

3) SIEM & SOC: Ons ziekenhuis leeft onder een dagelijkse en constante uitdaging voor (cyber)aanvallen. 
Op dit ogenblik is er geen SIEM of SOC actief, maar daar willen we op korte termijn verandering in brengen.
De technologie en de mogelijkheden willen we met jouw hulp verder onderzoeken om de uitrol voor te bereiden.
Je staat in voor het ontwerp, de keuzes (product, on-prem/cloud) en POC van ons NEXT GEN SIEM & SOC platform.

4) Een ziekenhuis omgeving bevat een schat aan informatie. Data-exports vanuit allerlei medische en administratieve software pakketten, rapporten die via reporting services rechtsreeks uit databanken worden getrokken, dashboards via ons datawarehouse enz.  De hoeveelheid data is zo overweldigend, dat het soms moeilijk is voor een eindgebruiker om de juiste informatie te vinden. 

Om hem of haar bij te staan in deze zoektocht, willen we een portaal aanbieden met volgende functionaliteiten:
?	een overzicht tot de rapportages waartoe hij/zij reeds toegang heeft
?	kunnen zoeken binnen de volledige catalogus met bestaande rapportages om vervolgens toegang te kunnen aanvragen
?	een aanvraag-formulier voor rapportage die nog niet beschikbaar is
De portal omvat ook een beheerdersmodule, waarbinnen enerzijds het beheer kan  gedaan worden van de catalogus, maar herbergt ook een workflow om de aanvragen van nieuwe rapportages via de nodige goedkeuringskanalen te leiden en de eindgebruiker op de hoogte te houden van zijn aanvraag.
Jouw opdracht is deze portal te ontwikkelen. 


5) We bieden daarnaast ook leerrijke en afwisselende stages aan voor wie zich wil vervolmaken in hardware-installaties of in servicedesk-ondersteuning.
"
NVISO ;Guimardstraat 8;1040;Brussels;https://www.nviso.eu/;Femke Smedts - Cindy Moonens;;"+32 493 59 81 22; +32 475 80 07 12";"NVISO is a pure-play cyber security consulting firm: our team is composed of security professionals who each have their specific field of expertise, ranging from Information Security Governance, Risk & Compliance to Incident Response, Penetration Testing, Software Security and Training & Awareness. This fantastic blend of skills enables us to help organizations prevent, detect, and respond to complex security challenges. 

NVISO is also known as a Belgian Cyber Security start-up: through our active investment in Research & Development and partnerships with Belgian academic players, we are investigating emerging threats and trends, refining our techniques, and developing innovative products that make NVISO a unique player in the market. 

Our team is built on the values of Entrepreneurship, Commitment, Integrity, Client-Orientation and Respect, which neatly ties into our mission to be an innovative, trusted and respected security partner for our clients. And we are looking for new colleagues that are as enthusiastic about these values as we are! So come and join us!
";"Job descriptions

As a Junior Cyber Strategy consultant, you will assist our smaller and larger customers with the overall reinforcement of their security posture. Typical engagements include (but are certainly not limited to):

Defining a Security Strategy, supported by a corporate threat assessment in collaboration with key stakeholders in the organization;
Assisting IT or security teams with the implementation of strategic security projects, acting as an interim security officer. You may be supported by other NVISO experts, or work in full integration with the client organization;
Implementing or refining our client?s security governance, including decision-making mechanisms, security policies and norms or security management processes and procedures;
Executing risk assessments and creating action plans in concertation with internal and external stakeholders;
Assisting in reaching or maintaining compliance to information security legal, contractual or internal requirements;
Defining or testing crisis management, business continuity or disaster recovery planning;
Raising the awareness of staff or management on cyber threat through classic or innovative awareness initiatives.
We work both for very large and very small organizations, which all have one thing in common: a keen interest in making significant progress in their protection against current and emerging cyber threats.


Your profile

You have affinities with cyber security, and you believe the following to be applicable to you:

You have a Bachelor or a Master?s degree. Your education is not required to be in IT or technology though you should have some affinity with technology;
You are fluent in English and Dutch or French;
You are used to operating with a great deal of autonomy, but also appreciate the value of team work;
You are a good communicator;
You think you have project management skills;
You are results-oriented and are able to deliver within pre-set deadlines. You value quality and client-satisfaction above all, and appreciate the value of outstanding deliverables.
  

Our offer
We strongly believe your motivation is the key to success in our line of work. For this reason, we are committed to offering you an attractive package including financial and non-financial components:

A highly competitive salary with the some very interesting perks:
Company Car;
Phone & subscription;
Laptop;
Hospital & group insurance.
A yearly training budget, with great flexibility for choosing trainings as long as they contribute to your personal development;
An entrepreneurial and agile company, where you will be stimulated and supported in driving new initiatives (either internally in driving the organization or externally in our service offering), without losing sight of having fun;
The regular team-building and fun events;
Our commitment to coach and counsel you and help you grow.
  

If you are interested, please send an updated CV and a motivational letter to joinourteam@nviso.be!

"
Knoware;Pathoekeweg 9;8000;Brugge;https://www.knoware.be/;Sidney Barclay;;+32 67 47 59 31;"Knoware is medisch software bedrijf met kantoren in Nijvel en Brugge.

Een belangrijk deel van onze activiteiten is gericht op het bieden van innovatieve 
oplossingen voor de zorgsector op het gebied van medicatiebehandelingsmanagement.

ComeoCare is ons hoofdproduct, het is een allesomvattende oplossing voor veilig beheer van 
medicatiebehandelingen, gespecialiseerd in oncologie (kankerbehandeling).

ComeoCare wordt momenteel gebruikt in meer dan 30 ziekenhuizen en is marktleider in Belgi‰.
U kunt meer over ComeoCare lezen op onze website https://www.comeocare.com/.  
";"Knoware is op zoek naar studenten die ge‹nteresseerd zijn in de ontwikkeling van een medische
drug databank die gehost wordt op een cloud omgeving.

De federale overheid stelt een openbare databank ter beschikking, de ""drugs authentic source 
database"" (SAM-databank) die beschikbaar is voor alle actoren in de gezondheidszorg die 
software ontwikkelen voor medicatiebehandelingen. Deze database is een samenvoeging van open 
data die door drie verschillende instanties wordt aangeleverd en bevat een groot aantal 
geneesmiddelen en leveranciersinformatie. De database is toegankelijk via webservices en door 
volledige of delta-dumps van de database te downloaden als XML-bestanden die worden beschreven 
door verschillende XSD's.
Voor de ontwikkeling van onze toekomstige producten zijn we ge‹nteresseerd in 
toegang tot de SAM-gegevens met behulp van een moderne en flexibele cloudarchitectuur, waardoor
andere gegevensbronnen kunnen worden verrijkt via API's.

De technologie‰n die we voor ogen hebben voor de ontwikkeling zijn 
?             Java  of C# .NET voor de backend
?             HTML5 en JavaScript frontend, gebruik makend van een JavaScript framework zoals ReactJS of VueJS;
?             Azure als cloud platform
"
November Five;Scheldestraat 11;2000;Antwerpen;www.novemberfive.co;Nathalie Dilewyns;;03 500 92 21;Wij zijn November Five, een volledig ge‹ntegreerde partner voor digitale transformatie. We helpen onze klanten om blijvende impact te maken met digitale oplossingen. ;Ambitieuze softwareontwikkelaars: get in touch! 
Cloud Innovation;Ottergemsesteenweg - Zuid 808;9000;Gent;www.cloudinnovation.be;Daphne Van de Velde;;477230962;"Cloud Innovation specialiseert zich in Salesforce.com en the Force.com platform. Gebruikmakend van de sterke punten van het Salesforce.com-platform willen we zinvolle applicaties maken om zoveel mogelijk van de bedrijfsprocessen van onze klanten te ondersteunen en een gebruiksvriendelijke oplossing te bieden. Onze kantoren bevinden zich in de Ghelamco Arena met een satellietkantoor in MeetDistrict Antwerpen.

Salesforce is een customer relationship management-platform (CRM) en biedt cloudgebaseerde applicaties voor sales, services, marketing en meer. Met hun webgebaseerde CRM-software kun je eenvoudig alle klantactiviteiten op een centrale plek bijhouden, beheren en analyseren.

Voor backend-ontwikkeling biedt Salesforce de Apex-taal die op Java is gebaseerd. Frontend-ontwikkeling wordt gedaan met behulp van het Lightning Javascript-framework en Visualforce-pagina's. De Salesforce-infrastructuur is zodanig opgezet dat de databasestructuur en de configuratie-metadata gemakkelijk toegankelijk zijn en worden ge‹ntegreerd in het ontwikkelings-framework.

";Wij zijn steeds op zoek naar stagiairs die onze developers willen ondersteunen bij de ontwikkeling en implementatie van het Salesforce platform. Als stagiair zal je samen met jouw stagebegeleider werken aan tal van interessante projecten op het platform, dit voor klanten als voor onze interne werking. 
Xplore Group;Guldensporenpark Gebouw I, Bus 88;9820;Merelbeke;https://www.xploregroup.be/nl/;Mitchell Obasogie;;0497 91 89 28;"Bij Xplore Group maken we Software op maat voor onze klanten, hier ligt de focus op uiteenlopende technologie‰n.
we hebben kantoren in  Kontich, Hasselt, Leuven en Merelbeke . We zijn altijd opzoek naar gemotiveerd Graduates, die hun eerste stappen willen zetten binnen Technologie. 
Xplore Group is actief binnen Belgi‰, Nederland en Spanje en heeft door de jaren heen expertise opgebouwd rond de meest innovatieve topics op vlak van software development, cloud, e-commerce, digital en data  Dit doen we in projectmodus, in cocreatie met onze klanten en via onze professional services.

Het slim gebruik van technologie kan de doeltreffendheid van je marketingstrategie gevoelig verhogen. De oplossing is simpel: gooi het roer om en ga voor een volledige digitale transformatie van je onderneming.

Xplore Group stort zich samen met jou in het digitaal avontuur, in welk stadium van de reis jij je ook bevindt. We begeleiden en adviseren jou bij elke stap van de weg. We houden steeds het einddoel voor ogen: een slimme, innovatieve, ge‹ntegreerde en schaalbare oplossing die volledig is afgestemd op de noden van jouw onderneming.

Bij het ontwerp van onze technologie‰n staat de gebruiker steeds centraal. Een positieve gebruikerservaring is per slot van rekening allesbepalend voor het blijvende succes van jouw business.

";#NAAM?
azWest;Iepersesteenweg 100;8630;Veurne;www.azwest.be;Geert Vandevelde;;58333436;Ziekenhuis;"Bachelor/Graduaat Netwerk voor uitrol NAC (Netwerk Access Control) en implementatie nieuwe switchen, wireless netwerk en herschikken netwerkkasten
Bachelor/Graduaat Cybersecurity opvolging (netwerk, pc's, servers,..)"
Bothive;Coupure Rechts 620;9000;Gent;https://bothive.be;Brecht Valcke;;498818587;Bothive is een jonge scale-up die de methode waarop bedrijven communiceren naar hun klanten volledig moderniseert. Je kan Bothive zien als een geautomatiseerde inbox die er voor zorgt dat bedrijven hun klanten sneller en persoonlijker kunnen helpen. Dit gebeurt aan de hand van technologie‰n zoals chatbots, E-mail labeling, dynamische formulieren en een next-generation multichannel inbox. We zijn een jong team waar een typsiche startup/scaleup cultuur hangt.;Wij zoeken full stack webontwikkelaars die graag werken met Node.js en React en UX-designers die een grote rol willen spelen in hoe ons platform er gaat uit zien in de komende jaren. Bij ons krijgt je geen individueel project, maar draai je gewoon enkele maanden mee als volwaardig teamlid. Dit is een methode waar je het meeste uit leert en het meeste voldoening uit haalt. Na de stage zijn er job mogelijkheden aangezien we een jong snel groeiend team zijn.
Ikologik NV;Sint-Amanduslaan 38;8730;Beernem;https://www.ikologik.com;Tom Serru;;+32 478 22 69 31;Ikologik ontwikkelt een IIoT platform voor visualisatie, rapportering en slimme analyse van verschillende procesdata. Hierdoor krijgen machinebouwers en productiebedrijven ten allen tijde inzicht in de werking van hun installaties.;#NAAM?
Direct;Oscar Delghuststraat 60;9600;Ronse;www.direct.eu;Pauline De Vos;;+32 (0)55 66 85 26;Bij Direct kan je rekenen op een inclusieve cultuur waar innoveren en ondernemen ingebakken zit. We dagen je uit om op de tippen van je tenen te staan, elke dag opnieuw. We geloven dat jouw persoonlijke groei ook het bedrijf doet groeien. En omgekeerd. In onze unieke atmosfeer ben je een echte partner, en stippel je mee onze toekomst uit.;Heb je de theorie op zak en ben je op zoek naar een ervaring in de praktijk? Ben je benieuwd naar wat een job als system engineer echt inhoudt? Heb je veel idee‰n over cloud, cyber security, networking of nog meer en toets je ze graag eens af tegen het werkveld of de mening van collega's? Laat dan zeker van je horen. We kijken ernaar uit om je een boeiende stage te bezorgen, boeiend voor jou maar evengoed voor ons. We zoeken samen naar een optimale stageopdracht die alle boxes checkt en waarmee je bovenal kan ontdekken hoe het er nu echt aan toe gaat, in het werkveld maar ook gewoon op het tofste kantoor van Vlaanderen.
November Five;Scheldestraat 11;2000;Antwerpen;https://novemberfive.co;Veronique Verhees;;499323613;"At November Five, we create digital experiences that drive people and businesses forward. We build everything from elegant, user-friendly mobile applications to robust, complex REST API?s, taking each project from strategy to execution.

With a diverse team of great minds and an organisation built for performance and speed, we solve problems, seize opportunities and deliver results that set us apart. To us, being successful means growing together with our people and with our clients. We invest heavily in capability building and knowledge sharing amongst our teams, and we strive to develop lasting, meaningful partnerships with our clients.

We?ve come a long way since our beginnings in November 2008, and we?re excited about the endless possibilities that lie ahead.

Ready to join us?
";"If you live and breathe technology as we do, can spot a patchy UX from a mile away, write beautiful code or love to build websites with the utmost care, we?d love to hear from you. Whether you?re majoring in web or mobile development, design, ICT or multimedia, we?re curious to see what you bring.

Our internships mainly include one or more of the following disciplines:
- Frontend development (React)
- Backend development (Serverless - AWS)
- Mobile development (React Native)
- UI/UX design
- Graphic design
- Marketing"
Aaltra;Brusselsesteenweg 202;9090;Melle;www.aaltra.eu;Pieter-Paulus Vertongen;;32479516653;Aaltra is een ?Digital Innovation Studio? in Melle (bij Gent). Vanuit onze studio werken we met een team van getalenteerde designers en ontwikkelaars aan de digitale producten en diensten van de toekomst. Voor klanten zoals Daikin, Engie en Novy maken we innovatieve apps en IoT-oplossingen die een echt verschil maken in het dagelijkse leven van duizenden gebruikers.;"Je staat op het punt om af te studeren en je kan niet wachten om je kennis, goesting en inspiratie in te zetten voor echte klanten en echte gebruikers? 
Dan beland je liever niet in een bedrijf waar je elke dag andere klusjes gaat opknappen.
Bij Aaltra bieden we elk jaar een duo van 2 stagiairs de kans om deel uit te maken van ons team. Naast een fantastische eerste werkervaring bieden we je ook de kans om te werken aan een duidelijk uitgetekend project. Onder onze begeleiding leer je je eigen beslissingen te nemen, je leert omgaan met werkplanning en je komt in contact met de klant. 
Na je stage bij Aaltra heb je dus niet alleen ontzettend veel bijgeleerd. Je kan ook apetrots zijn op het project dat je opleverde.
Jouw profiel:
?	Je bent enthousiast en leergierig.
?	Je kan goed overweg met minsten ‚‚n van de volgende zaken:
   o	HTML, Javascript & Css
   o	iOS development (Swift)
   o	Android development (Java)
   o	Vue js
   o	Backend development (C# .Net, SQL)
"
HITlab Howest;Graaf Karel de Goedelaan 32;8500;Kortrijk;www.hitlab.be;Jelle Demanet;;474677485;In the ?Human Interface Technology Lab? (HITlab), affiliated with Howest University of Applied Sciences, we are interested in humans in interaction with technology. HITlab focuses on various topics, ranging from measuring behavioral and (neuro-)physiological responses of users, to the development of adaptive and immersive applications that can respond to the mental state of the user. You will find both state-of-the-art measuring equipment that is typically used in a lab environment (such as high-end eye-tracking and body-tracking systems and EEG equipment for measuring brain activity) as well as user-friendly and cheaper systems that can be used in a real-life settings (such as mobile eye trackers and wearables). We also have the latest VR and AR systems at our disposal. We conduct research in various sectors, ranging from occupational therapy to industrie 4.0.;Wij zoeken een AI engineer met een brede focus die wil meerwerken aan leuke interdisciplinaire projecten binnen ons lab. Dit gaat van het bouwen van interactieve applicaties in VR en AR tot real-time interpreteren van hersengolven en fysiologische reacties (hartslag, huigeleiding, etc.) door middel van classificatie algoritmes.
AZ Sint-Jan Brugge-Oostende;Ruddershove 10;8000;Brugge;www.azsintjan.be;Nicolas;;050 452246;"Zoek je een stageplaats in een sociale, maatschappelijke omgeving met zeer veel technologische uitdagingen? Bekijk dan zeker de mogelijke ICT-stageplaatsen in het AZ Sint-Jan Brugge-Oostende. ICT is een onmisbare technologie voor dit zeer groot algemeen ziekenhuis met zijn 3 campussen. Het ICT-departement telt een 60-tal ICT-medewerkers in verschillende gespecialiseerde teams. Ben je gebeten door BI-ondersteunende tools, zoek je liever je ding in het ontwikkelen van drempelverlagende applicaties, droom je ervan security-specialist te worden of is voor het contact met de eindgebruiker belangrijk en wil je je vervolmaken in de rechtstreekse eindgebruikersondersteuning? Misschien ben je meer geboeid door de sterke evolutie naar de Cloud, de Microsoft 365 platformen. Of misschien droom je ervan netwerkspecialist te worden. In het AZ Sint-Jan werken we op al die domeinen en we bieden meerdere uitdagende stageplaatsen aan met een goede begeleiding bij iedere stage-opdracht.

We garanderen dat jullie met een stage- of eindwerk in ons ziekenhuis echt kan uitpakken op je CV maar ook mooie kansen krijgt in het ziekenhuis voor latere tewerkstelling.
";") Een ziekenhuis omgeving bevat een schat aan informatie. Data-exports vanuit allerlei medische en administratieve software pakketten, rapporten die via reporting services rechtsreeks uit databanken worden getrokken, dashboards via ons datawarehouse enz.  De hoeveelheid data is zo overweldigend, dat het soms moeilijk is voor een eindgebruiker om de juiste informatie te vinden.

Om hem of haar bij te staan in deze zoektocht, willen we een portaal aanbieden met volgende functionaliteiten:
.       een overzicht tot de rapportages waartoe hij/zij reeds toegang heeft
.       kunnen zoeken binnen de volledige catalogus met bestaande rapportages om vervolgens toegang te kunnen aanvragen
.       een aanvraag-formulier voor rapportage die nog niet beschikbaar is
De portal omvat ook een beheerdersmodule, waarbinnen enerzijds het beheer kan  gedaan worden van de catalogus, maar herbergt ook een workflow om de aanvragen van nieuwe rapportages via de nodige goedkeuringskanalen te leiden en de eindgebruiker op de hoogte te houden van zijn aanvraag.
Jouw opdracht is deze portal te ontwikkelen.

"
AZ Sint-Jan Brugge-Oostende;Ruddershove 10;8000;Brugge;www.azsintjan.be;C‚dric;;050 452246;"Zoek je een stageplaats in een sociale, maatschappelijke omgeving met zeer veel technologische uitdagingen? Bekijk dan zeker de mogelijke ICT-stageplaatsen in het AZ Sint-Jan Brugge-Oostende. ICT is een onmisbare technologie voor dit zeer groot algemeen ziekenhuis met zijn 3 campussen. Het ICT-departement telt een 60-tal ICT-medewerkers in verschillende gespecialiseerde teams. Ben je gebeten door BI-ondersteunende tools, zoek je liever je ding in het ontwikkelen van drempelverlagende applicaties, droom je ervan security-specialist te worden of is voor het contact met de eindgebruiker belangrijk en wil je je vervolmaken in de rechtstreekse eindgebruikersondersteuning? Misschien ben je meer geboeid door de sterke evolutie naar de Cloud, de Microsoft 365 platformen. Of misschien droom je ervan netwerkspecialist te worden. In het AZ Sint-Jan werken we op al die domeinen en we bieden meerdere uitdagende stageplaatsen aan met een goede begeleiding bij iedere stage-opdracht.

We garanderen dat jullie met een stage- of eindwerk in ons ziekenhuis echt kan uitpakken op je CV maar ook mooie kansen krijgt in het ziekenhuis voor latere tewerkstelling.";Leerrijke en afwisselende stages aan voor wie zich wil vervolmaken in hardware-installaties of in servicedesk-ondersteuning.
Conics;Tiendelaan 5A;8900;Ieper;www.conics.be;Frederic Vandelanotte;;486737252;We zijn een software bedrijf gespecialiseerd in tools voor de grafische markt (bv drukkerijen, prepress bureau's);- Project die een klant mogelijkheid moet kunnen geven om van een bestaande verpakking, een logo/afbeelding te selecteren en zo met dat gegeven zoekt naar andere verpakkingen waar het logo/afbeelding gelijkend  in voorkomt. (bv kleiner, ander kleur, andere achtergrond...)
Pirsol bv;Polderstraat 177;8450;Bredene;www.pirsol.be;Pierre Thienpont;;59389392;Pirsol ontwikkeld een Belgisch Payroll applicatie in .Net. Wij hosten die applicatie in de cloud waarmee we +40.000 loonbrieven per maand berekenen. Pirsol werk nu met 4 ex-Howest studenten in Bredene.;"Project Tikklok: een blazor app maken voor een tikklok met dimona verbinding. Analyse, interface, ontwikkeling
Project AI: aan analyse maken hoe ML een loonboeker zou kunnen helpen in het boeken van lonen."
Encima;Keibergstraat 112;8820;Torhout;www.encima.com;Dirk Versavel;;050 230 202;Encima ontwikkelt web en mobiele toepassingen op maat.  Wij ontwikkelen in JAVA (incl. Gradle en Kotlin) en gebruiken diverse frameworks zoals Spring, Hibernate, Vue.js, Bootstrap, ...  Onze toepassingen worden gehost op Google Cloud Platform.  Met ByondFiles (document management in de cloud) en Marcando (cloud-based e-commerce platform) brengen we 2 geavanceerde SaaS producten op de markt.;Bachelor Toegepaste Informatica / optie programmeren
Codifly;Lokerenveldstraat 57;9300;Aalst;www.codifly.be;Gerben Carron;;497231743;"Codifly is een scale-up uit Aalst gespecialiseerd in de ontwikkeling van innovatieve software-oplossingen. Gedreven door ons enthousiasme sleutelen we met ons 20-koppig team aan de digitale wereld van morgen. Met onze expertise in moderne technologie‰n zorgen we voor hoog kwalitatieve en innovatieve webapplicaties, mobiele applicaties en IoT-oplossingen.

""Improve the connected world, together"" met deze mindset bouwen wij dagelijks, in nauwgezette samenwerking mee aan het succes van onze klanten. Het is dan ook met de meeste voldoening dat we naar onze 100 afgelopen projecten terugkijken. Door onze flexibele aanpak mogen we enkele start-ups, scale-ups maar ook gevestigde waarden tot ons klantenbestand rekenen.

Als innovatief bedrijf gelooft Codifly sterk in het web en het ?Internet of Things? en zijn er vast van overtuigd dat de technologische evolutie hier nog maar net begonnen is. Let's design, develop, disrupt & scale.";"Codifly is de place to be voor enthousiaste en gepassioneerde studenten die de beste complexe digitale oplossingen willen ontwikkelen. Wij bieden de beste technische uitrusting, focussen op kwaliteit, promoten continu leren en werken hard aan onze bedrijfscultuur. Ons gemotiveerd team ontvangt jou met open armen en neemt je mee doorheen de verschillende uitdagende projecten waar we bij Codifly dagelijks aan bouwen.

Als stagiair javascript/full stack developer zal je een belangrijke rol spelen in het ontwikkelen van complexe web & mobiele applicaties en zal je rechtstreeks bijdragen tot de groei van Codifly! Wat wij je te bieden hebben:
- Praktische hands-on approach met weinig gezever.
- (V‚‚l) bijleren over de ontwikkeling van complexe web- en mobiele applicaties.
- Jong team dat de goesting heeft om mooie en goede software-oplossingen te ontwikkelen.

Interesse in onze projecten? Neem zeker een kijkje op onze website"
Picanol Group;Steverlyncklaan 15;8900;Ieper;www.picanolgroup.com;Femke Heens;;057 22 21 11;Picanol Group is een gediversifieerde industri‰le groep wereldwijd actief op gebied van machinebouw, landbouw, voeding, energie, watermanagement, effici‰nt (her)gebruik van natuurlijke hulpbronnen en overige industri‰le markten met focus op water. Picanol Group telt wereldwijd ongeveer 7.000 medewerkers en is via Picanol nv genoteerd op Euronext Brussels (PIC). De IT-afdeling in Ieper biedt ondersteuning aan 3 bedrijven binnen het segment Machines & Technologies van Picanol Group:  Picanol (de activiteiten Weaving Machines), Proferro (gieterij en mechanische afwerking) en PsiControl (ontwikkeling en productie van elektronica).;Een boeiende stage op de hoofdzetel van een innovatieve wereldspeler, binnen een vooruitstrevend IT-team? Dat is nog maar een fractie van wat Picanol Group uit Ieper jou als student te bieden heeft. Softwareontwikkeling, bouwen van integratieoplossingen, data-analyse ? you name it, het aanbod aan stageprojecten bij Picanol Group is groot! We luisteren graag naar jouw interesses en zorgen voor een gepaste uitdaging waarbij je met de nodige coaching aan de slag kan gaan met de nieuwste tools en applicaties zoals o.a. Microsoft Azure, BizTalk, .NET, Business Intelligence, Power BI, Angular, ? Inspireer onze IT-experts met jouw idee‰n en inzichten en draag je steentje bij om van Picanol Group een ?factory of the future? te maken!
Athena Graphics;Liebeekstraat 20;8800;Roeselare;www.athena-graphics.be;Alexander Degroote;;3251226966;"Familiebedrijf Athena Graphics verzorgt reeds 29 jaar de artwork, prepress en opslag van digitale verpakkingsdata voor grote retailers en brand owners. Hiermee wisten we snel door te stoten tot de Europese top. De gedrevenheid van de 90 medewerkers in onze 3 vestigingen (Belgi‰, Frankrijk en Nederland) en de allernieuwste software en hardware maken van Athena Graphics een waar succesverhaal. 

Sedert jaar en dag leggen we heel veel nadruk op de tevredenheid van onze medewerkers. In ons ultramoderne pand met open-space kantoren kunnen onze werknemers gebruik maken van een fitnessruimte en worden tal van initiatieven georganiseerd zoals gratis fruit, drinks, een jaarlijkse teambuilding,... . 
";"Tijdens je stage sta je mee aan de wieg van een nieuw toonaangevend cloud platform met internationale ambities. Daarnaast werk je mee aan de verdere ontwikkeling van ons ERP pakket. Je wordt continu uitgedaagd om onze applicaties naar een hoger niveau te tillen en nieuwe features te realiseren. Je mentor staat hierbij steeds voor je klaar en helpt je groeien naar het level van development goeroe.

Het samenwerkingsplatform bevat verschillende modules. Met ?My Athena? beheert u alle jobs die in omloop zijn bij Athena Graphics. DAM biedt een central database voor al uw media, prepress bestanden, cutter guides, logo?s,?

De gebruiksvriendelijke project management module helpt u om uw werk te stroomlijnen en effici‰ntie te brengen in de processen van uw organisatie. Via deze module kunt u al uw taken plannen en zo uw deadlines halen. Compare is een stand-alone oplossing om artwork bestanden online te bekijken, te annoteren en te vergelijken. Hiervoor maken we gebruik van moderne en state-of-the-art viewing technologie. 
"
Play it;Nelson Mandelaplein 2;8500;Kortrijk;www.playitsafe.eu;Brecht Kets;;498623870;"Play it Safe is het #1 game-based leer -en content platform dat G-learning, de volgende mijlpaal in effici‰nte en laagdrempelige training, naar organisaties brengt. Of het nu gaat om het trainen van procedures, het doen van onboarding of het stroomlijnen van interne communicatie, wij bieden gestandaardiseerde en op maat gemaakte ervaringen op mobiel, web en VR.
";"Front-End developer
Backend Developer (C#)
full stack developer (blazor, angular)"
ByondFiles NV;Keibergstraat 112;8820;Torhout;https://www.byondfiles.com;Kim Mortele;;0032 50 960 431;"ByondFiles, voorlopig alvast een catchy naam, maar zeer binnenkort vast en zeker een begrip en belangrijke speler op de markt van Document management en Project management bij KMO's en grotere bedrijven.
Met ByondFiles werkten we een SaaS product uit die het eenvoudigst te omschrijven valt als een Document management systeem in de cloud en op stero‹den. We gaan verder dan alle andere storage en document management systemen. Check alvast even onze digitale haven: https://www.byondfiles.com.";Ben je wild van de wereld van www en ben je van mening dat de web-revolutie nog steeds maar aan het begin staat? Ben je gecharmeerd door de prachtigste programmeertaal die er bestaat in al zijn facetten (Java uiteraard)? Wil je voor je stage terechtkomen in een toffe atmosfeer die collegialiteit en creativiteit ademt? Search no more and join the revolution!
VIB;Rijvisschestraat 120;9052;Gent;www.vib.be;James Collier;;31654169016;VIB is the premier biotech research organisation in Belgium. VIB employs 1600 research scientists, technicians, and engineers from more than 70 nationalities, working on the cutting edge of biology and engineering. They do fundamental research in life sciences with great value to society, such as finding innovative cures for cancer, or better understand the brain and help treat debilitating brain diseases like Alzheimer?s. Life science research is no longer the exclusive domain of chemists and biologist in lab coats, but needs talented computer scientists to design algorithms, build websites, handle big data, and apply modern AI to hard biological problems.;"We are looking for motivated software engineers to work on open-source software used directly by researchers for cutting-edge science. Do you want people to use the software you create? Do you want to interact with scientists? If your answer is 'yes' to those questions then VIB bioinformatics core is for you!

Project 1. You may have heard about the completion of the human genome. In fact, the DNA sequence for this genome is an ?averaging? and biologists actually use data at different resolutions: from this whole-genome view down to the level of individual cells. This project will allow you to work on a tool that researchers use to visualise and interact with single-cell resolution sequence data.

Project 2. Researchers use advanced 3D visualization software to study the structure and interaction of large, complex biological molecules. The goal of this internship project is to extend two popular visualization applications (PyMOL and Chimera) with algorithms for protein folding and protein comparison. Protein comparison is a fundamental task upon which understanding of disease and drug discovery are among the important applications, and protein folding is a central unsolved problem in biology, a solution would revolutionise humanity?s understanding of life.

Project 3. The ?tree of life? traces the origins or ancestry of all species of life on earth. But how are these trees constructed? In this project you will work on software that draws interactive phylogenetic trees that biologists use to visualise not only ancestral relationships between species, but even individual biological molecules.

Project 4. Neuroscientists track small fluctuations in brain patterns to understand their effects or purpose. In this project you will work on software for experimenting with these patterns: visualising them in real-time, stimulating the brain in response to certain patterns, and understanding results."
Transics International;Ter Waarde 91;8900;Ieper;Transics.com;Michael Hoogewijs;;057 79 02 97;ransics ontwikkelt en commercialiseert software, hardware en diensten voor de transportsector. Onze oplossingen helpen vlootoperatoren om de (kosten)effici‰ntie van hun processen op te drijven, elke rit productiever, veiliger en milieuvriendelijker te laten verlopen en hun dienstverlening te verbeteren.;"Data science and machine learning on rich fleet big data

build Lakehouse using the state-of-art techniques which captures very rich data streams coming from all the connected vehicles. Data is very wide going from diagnostics information from the ECUs in the different car components, ADAS sensor data, activity data of the driver to the more simpler location, speed, direction vector data. The amount of data is staggering and is growing today exponentially reaching TB to PB?s of data.  

Optimize fleets with predictive maintenance models

Do you want help our customers improve their maintenance cost and avoid missing customer deadlines because the truck is broken-down at the side of the road?
Are you passionate on big data and machine learning? 
 
If yes, then Transics could be the company for you! 

Predictive maintenance is the holy grail in the fleet industry. In a business where profit margins are very low. Reducing the Total Cost of Ownership (=TCO) is pivotal: 
?	Reduce maintenance cost compared to run-to-failure or preventive maintenance. 
?	Reduce downtime cost of the fleet. 
Certainly for fleet it is essential as the asset can breakdown on route to the customer. 
?	Reduce penalties and unsatisfied customers who are not delivered on time. 
?	Optimize the workshop cost by planning the maintenance in a cost-effective shop because of the on-time prediction of failure. 
"
VRT;Auguste Reyerslaan 52;1043;Brussel;www.vrt.be;Karine Bovens;;02/741 53 26;VRT - Vlaamse Radio- en Televisieomroeporganisatie - nv van Publiek Recht;De VRT wil alle Vlamingen informeren, inspireren en verbinden, en zo de Vlaamse samenleving versterken. Werken bij de VRT betekent werken bij een dynamisch en innovatief bedrijf. Je komt terecht in een uitdagende werkomgeving, waar heel wat groeimogelijkheden zijn. Of je nu komt als programmamedewerker, video-ingenieur of jurist, bij de VRT krijg je alle kansen.
Alertis NV;Kruisboommolenstraat 13;8800;Roeselare;www.alertis.be;Stefanie Lootens;;0496 54 99 00;"Beveiligingsfirma, actief in brand-, inbraak- en gasdetectie, CCTV en toegangscontrole.
100 medewerkers, verspreid over 3 vestigingen (hoofdkantoor Roeselare, vestiging in Wilrijk en in Lummen). ";"Jouw dag als Service Technieker Beveiliging ziet er zo uit:
Je hebt om 7u30 afgesproken met je collega. Van daaruit vertrekken jullie naar een indienststelling bij een klant in de regio. Het belooft een uitdagende dag te worden want het gaat om een ge‹ntegreerde installatie van brand, inbraak ‚n camera. Jouw planner heeft je alvast alle informatie meegegeven; je contactpersoon bij de klant, het nodige materiaal, de grootte van de werken, de opgemaakte offerte, verwachte tijdsduur,... . Bij aankomst stem je even af met de elektricien die de voorbereidende werken heeft voorzien. Je kan aan de slag. Waar je ook komt laat je een professionele en vlotte indruk na want klantvriendelijkheid wordt hoog in het vaandel gedragen.
"
Legends;Sasplein 12;8000;Brugge;www.legendstours.be;Simon Vandekerckhove;;498693779;"Legends vzw is een organisatie die wandelingen en gidsbeurten organiseert in Brugge, Gent en Antwerpen. Momenteel werken we aan de ontwikkeling van een digitale applicatie app die Beyond Bruges heet en die de gebruiker toelaat Brugge te bezoeken met de smartphone of tablet. We brengen de geschiedenis van Brugge tot leven via augmented reality, waarbij de gebruiker bezienswaardigheden kan aanklikken aan de hand van 360ø-beelden om een beschrijving te ontvangen en vervolgens kan terugkeren in de tijd om dezelfde locatie te bekijken vanuit middeleeuws perspectief. Binnen dit 3D-model van 15de-eeuws Brugge bouwen we ook aan een educatief spel, TimeQuest, waarin de gebruiker op missie gaat om de hertog te redden van de pest door virtuele voorwerpen te verzamelen, zoals medicijnen, eten of kledij. Daarvoor dient de speler meerkeuzevragen te beantwoorden en minigames te voltooien op diverse locaties binnen de stad.

Het doel van deze app is in de eerste plaats om het concept van een lokale gemeenschapsmunt te introduceren in Brugge (zoals de Torekes in Gent of de Brixton Pound). Dit gaat als volgt. Alle features binnen de app kunnen worden ontgrendeld aan de hand van kleine bedragen die de gebruiker betaalt in een digitale munt, genaamd de Bryghia. Elke gebruiker deze Bryghia verdienen door een aankoop te doen bij een van onze partnerwinkels die hij kan terugvinden via de app. Het gaat daarbij uitsluitend om lokale zaken die voldoen aan welbepaalde duurzaamheidscriteria. Bij elke aankoop die de gebruiker doet in euro's in een van deze zaken, krijgt hij 10% van de waarde terug in zijn digitale wallet in de vorm van Bryghia door een QR-code te scannen in de zaak. Vervolgens wordt dit bedrag maandelijks in euro gefactureerd aan de zaak. Dit zorgt ervoor dat de gebruiker 10% extra koopkracht verwerft in Bryghia door lokaal te shoppen, terwijl de zaak extra promotie krijgt en onderdeel wordt van een netwerk van duurzame zaken in Brugge.

De opzet is om met de Bryghia een meerwaarde te cre‰ren die je op diverse manieren en op verschillende plaatsen kunt besteden, niet enkel om de talloze virtuele functionaliteiten in de app te ontgrendelen, maar ook om een selectie van goederen en diensten te kopen, zoals rondleidingen, bierdegustaties of museumbezoeken. Op die manier willen we een klein, monetair ecosysteem op poten zetten en het toerisme in Brugge als hefboom gebruiken om een eerste versie van een gemeenschapsmunt in Brugge te ontwikkelen.
";"De applicatie is uitgedacht en uitgewerkt door de vzw, bestaande uit 3 werknemers, en wordt gebouwd door een externe partner bestaande uit een architect en programmeur. De architect bouwt het Brugse middeleeuwse model en de programmeur bouwt de applicatie. Vanuit Legends in Brugge sturen we de ontwikkeling en verzorgen we de content in 4 talen. We zijn al sinds mei 2020 aan de app aan het bouwen en hopen ze tegen volgend voorjaar af te werken. Hierbij krijgen we o.a. steun van stad Brugge als onderdeel van Brugge Inc., de stedelijke incubator voor veelbelovende startups, alsook van VOKA als onderdeel van het BRYO-programma. We zijn op zoek naar een of meerdere studenten die ons kunnen bijstaan in het vervolledigen van diverse aspecten van de ontwikkeling van de app, zoals:

- Organisatie, controle en beveiliging van het betalingssysteem (Toegepaste informatica / Systeem- en netwerkbeheer) : De student werkt samen met de ontwikkelaar om het transactiesysteem van de Bryghia uit te werken en uit te testen, alsook te helpen voorzien in de beveiliging van het netwerk.

- Coderen, testen, debuggen van de applicatie (Programmeren) : De student werkt samen met de ontwikkelaar om alle fouten in de app op te sporen en de applicatie klaar te krijgen om op het grote publiek te worden losgelaten."
Delta Solutions;Groenbek 3;8790;Waregem;https://www.deltasolutions.be/;Steven Pauwels;;56325817;"Team
Delta Solutions is een team van gedreven web developers die instaat voor uw software op maat, webshop of website. We maken gebruik van Laravel als framework ( en zijn er wild van ). Onze beste vriend in backend is MySQL als database. We gebruiken steevast de nieuwste technologi‰n en mogelijkheden qua user interfacing om u zo goed mogelijk te dienen. Kom gerust met ons spreken, we luisteren graag vrijblijvend naar uw wensen.

Onze identiteit en perspectief
Elke organisatie via kwaliteitsvolle software ondersteunen,  is het ultieme doel voor het team van Delta Solutions.  Via onze toegankelijke communicatieve aanpak willen we met de klant net dat ietsje meer ontwikkelen.
We zijn gedreven door onze passie en we streven er naar om als software specialist de behoeftes van onze klanten zo goed mogelijk in te vullen.

U staat centraal
Bij ons staat de klant centraal en deze spirit voel je binnen onze organisatie, we luisteren naar de praktische noden en vertalen deze in een technische oplossing waarin we steeds oog hebben voor de eindgebruiker.  Wij luisteren. Communiceren.  Ontwikkelen.";"Full stack developer
Frontend developer
Backend developer

-----
Projecten:
Ontwikkeling CRM/PLANNING (vue/laravel)
Ontwikkeling Mobiele werk-app (ionic/vue/laravel)
...."
Strubbe Engineering;Sprookjesdreef 6A;8750;Zwevezele;https://strubbe.io;Bart Strubbe;;479779396;"Fullstack software engineering .NET Node Vuejs
Premium maatsoftware op basis van design patterns en automated testing.
Software integraties.";Fullstack software engineer die kan bijdragen tot ongoing projecten voor internationale klanten
EASI;Kolonel Begaultlaan 1;3012;Leuven;https://easi.net/nl;Felix De Smet;;0497 77 72 96;Wij zijn EASI (7x Best Place To Work & 3x Best Managed Company), een Belgisch IT-bedrijf dat al sinds 1999 state-of-the-art solutions maakt op vlak van software en mobiele apps. We streven naar korte implementatietrajecten en een hoge toegevoegde waarde. Onze missie is dan ook om elke persoon en elk bedrijf tot zijn volledig potentieel te doen groeien. Met kantoren in Leuven, Gent, Nijvel, Luik, Genk, Luxemburg, Nederland en Parijs kunnen wij flexibele oplossingen aanbieden voor bedrijven die een partner willen die dicht bij hen staat.;Wij zoeken zowel commerci‰le als IT-minded studenten die op termijn aandeelhouder willen worden in het bedrijf, van een Fifa-toernooitje houden op kantoor, graag deelnemen aan een wekelijkse Friday-drink en fan zijn van straffe koffie. On a more serious note zoeken we studenten die positief ingesteld zijn, verantwoordelijkheidszin hebben, willen bijleren en transparante communicatie belangrijk vinden.
Lebon IT Services;Roeselarestraat 205A ;8840;Staden;https://www.lebonitservices.be/;Lowie Schaubroeck;;0499 51 05 71 ;Lebon IT Services helpt organisaties om gerust digitaal te werken. Met ons team van betrokken, betrouwbare en bekwame experten ontwerpen, bouwen en beheren we IT-oplossingen op basis van bewezen technologie‰n.;"Opleidingen:
- Toegepaste Informatica
- Systeem- en Netwerkbeheer
- Cybersecurity Professional
- Advanced Cyber Security

"
Bits of Love;Koning Albert I-laan 96a001;8200;Brugge;www.bitsoflove.be;Jessica Kellner;;+32 50 320 180;"Bits of Love is een high-end digitale product studio.
We bedenken en maken platformen, applicaties & games om de nodige impact te cre‰ren.
Dit doen we voor klanten als Studio 100, Club Brugge, Universiteit Gent en VRT.
Hierbij gebruiken we onze specialisaties zoals UX/UI design, datavisualisatie en game design.
En als het even kan, ontwerpen we onze eigen producten om de wereld te verbeteren :)";"Bij Bits of Love komt je terecht in een klein team van experts, die je graag helpen groeien in je kennis.
We gebruiken daarbij de nieuwste technieken zoals Typescript, webpack, React Native, Node.js, Next.js, GraphQL,..
En als je de lat hoger wil leggen kan dat ook met D3.js, Godot, Three.js, vele soorten databases en uitdagend lambda functies.
Ben je dus een Backend engineer, Frontend engineer, UX analist of pas je niet in een vakje maar wil je gewoon gaan voor ""het beste""? ?Dan ben je welkom bij ons!
Wij zorgen voor alle ondersteuning, een hecht en tof team, flexibele uren & leuke lunchpauzes."
Mintus;Ruddershove 4;8000;Brugge;www.mintus.be;Ollivier Francq;;50327355;Zorgbedrijf van OCMW Brugge en Stad Brugge;"Een verschil.
Dat willen we allemaal maken. En dat kan ook dicht bij huis. Bij ons bouw je mee aan zorg met een plus. Net dat tikkeltje meer, net die service die een ander niet kan bieden. Dat stapje verder gaan. Zo cre‰er je impact in het leven van onze klanten. Maar ook in het leven van familie en vrienden, bij collega?s, in de buurt. Als polyvalent medewerker, ICT 'er of als zorgverlener.

Jij maakt het leven van anderen vrij van zorgen door het beste van jezelf te geven: Jouw goesting om iets te betekenen voor anderen.

Wil je meer weten over onze troeven, surf dan naar : https://werkenbij.mintus.be/onze-troeven"
Formica (Cronos Group);Gaston Crommenlaan 8;9050;Gent;www.formica.digital;Bart Eynatten;;472900915;"Formica is een sterk groeiende onderneming van de Cronos Group. We ontwerpen, bouwen en onderhouden oplossing in de volgende domeinen:
1. Search, insights and analytics
2. Digital Experience Platforms (DXP)
3. Business Process Automation (BPA)
";Om verschillende innovatieve stage opdrachten met elastic.co en Google oplossingen zoeken we studenten uit verschillende richtingen zoals MCT, Toegepaste Informatica, MIT, systeem- en netwerkbeheer ...
Baamdesign;Baron Ruzettelaan  1/01;8310;Assebroek (Brugge);www.baamdesign.com;Bart Ameele;;32473352600;Baamdesign ontwikkelt elektronica en firmware voor verschillende toepassingen. Microcontrollers worden toegepast voor o.a geluids- en lichtsysteem controller in de zorg of voor het aansturen van vb een kruidenkweekkast voor gebruik in de keuken. Van  eerste proof of concepts tot productieklare electronica borden met firmware. ;Met onze eigen innovatie willen we een  alternatieve  U.I  bouwen voor het aansturen en oproepen van allerhande media. Je hebt een voorliefde voor techniek en vooral elektronica toepassingen en software. Je bouwt graag proof of concepts vertrekkende van bestaande kits. We denken aan het toepassen van  chipradar technologie. Je hebt vooral een voorliefde voor programmeren in C/C++ (on-board) en/of  in C#(Unity) creatie van UI interfaces Apps met media. 
ML6;Esplanade Oscar Van De Voorde 1;9000;Gent;https://www.ml6.eu/;Kaat Van Doren;;476284124;We are Machine Learning experts empowering leading organizations with intelligent technology. By applying the latest AI research, we keep our clients at the forefront of innovation.;"Join us in building cutting-edge intelligent technology! If you are hands-on and have a desire to help some of the world?s largest organizations leverage the most powerful algorithms, we want to hear from you.
Your mission, as an ML6 agent, is to empower leading businesses with intelligent technology on a global scale. Are you ready?
- ML engineer
- Data engineer
- Software engineer
- Customer engineer
- Internship"
Axxes;Ottergemsesteenweg 808 ;9000;Gent;https://axxes.com/;Quinten Kennes;;+32 491 23 25 24;Axxes (Best Workplace©2021) is een ambitieuze IT-consultancy onderneming met het oog op de toekomst. We vormen op dit moment een echt topteam van meer dan 200 sterk technische consultants. Technische go-getters die actief zijn op boeiende projecten binnen de domeinen van Software Engineering, Systemen & Netwerken, Software Testing, Project Management, Analyse en Data.;"We hebben verscheidene interne projecten lopen die zowel door Axxes als hun klanten gebruikt worden. Deze projecten vari‰ren sterk qua technologie‰n. 

?	Studenten met een IT achtergrond (Computer Science, Informatica, ?) die schitterende code schrijven
?	Communicatieve studenten die uit hun stoel durven komen 
?	Studenten met zin voor initiatief en verantwoordelijkheid
?	Durvers die zaken naar zich toe willen trekken

Kortom: Sterk technische maar vooral gedreven stagiairs om met samen te werken. "
INTERIT - SecureIT;IZ 3, Neerhonderd 15;9230;Wetteren;www.secure-it.be;Luc Vanderveken;;09 265 80 50;"Secure IT is een cybersecurity specialist met doorgedreven kennis van Kaspersky-, F-Secure- en
Fortinet-oplossingen. We onderhouden partnerships op het hoogste niveau met onze technologie- en servicepartners. Via deze allianties genieten we van verschillende voordelen om een sterke toegevoegde waarde aan onze klanten te bieden: escalatie naar product specialisten, beta testing, technologie roadmaps, gespecialiseerde informatie uitwisseling.
Onze technische expertdiensten worden uitgevoerd door een team van hoog opgeleide, ervaren en
gecertificeerde consultants. Naast onze partneraccreditaties hebben we ook certificeringen in algemene security kennisdomeinen als CISSP en CEH.
Sinds 1 september  maken we deel uit van INTERIT, gespecialiseerd in IT infrastructuur oplossingen. Met een team van 30 medewerkers staan we garant voor gespecialiseerde IT services, nauw klantencontact, werkplezier op en naast de werkvloer.";"Wij zoeken in de eerste plaats cybersecurity specialisten met een passie voor security, communicatievaardig, teamplayers met een sterke verantwoordelijkheidszin en vooral veel zin om bij te leren.
Opdrachten: security audit & pentesting, industrial security, security as a service, Microsoft Security / Office 365, een sterkere IT-beveiliging door een ge‹ntegreerd cyberbeveiligingsplatform."
Signpost BV;Wolfsakker 5A;9160;Lokeren;www.signpost.eu;Anton Vancauwenberghe;;472402574;Signpost is een groeiende organisatie in zowel Belgi‰ als internationaal met een focus op de educatieve wereld. Vanuit verschillende Business Units ondersteunen we educatieve instellingen in hardware, software & connectiviteit. ;Door de sterke groei van Signpost binnen zowel soft- als hardware kijken we momenteel uit naar gedreven stagestudenten die zichzelf willen ontwikkelen binnen dieptechnische materie. In functie van de interesse van de stagestudent kan er een persoonlijke stagetraject opgebouwd worden. 
Fruconý n.v.;Pittemsestraat 58D;8850;Ardooie;https://www.nayan.be/;Chlo‰ Vanacker;;478352158;"Nayan is de partner waarop merken en producenten een beroep doen om online verkoopkanalen te ontwerpen, bouwen en beheren. Voor elke online shop die dat wenst, slaan we de goederen op en verzorgen we de internationale distributie ervan. Voor anderen integreren we ons platform met hun SAP/ERP-backend. Met een minimum aan investeringen van hun kant, breiden we hun klantenbestand uit, integreren we online en offline verkoopkanalen, verbeteren we de marge en verhogen de verkoop.

Bij Nayan draait het om ?You?. Dus ook om onze mensen. We dragen een warme sfeer hoog in het vaandel, waar iedereen volledig zichzelf kan zijn en zijn eigen touch kan geven aan de job. We werken samen als mensen. 

Iedereen krijgt bij ons de kans om zich te ontplooien, om zelf op zoek te gaan naar je eigen sterktes binnenin de job en helemaal jezelf te zijn bij de uitvoering ervan. Kennisdeling stopt nooit en zeker niet in de fast pacing e-commerce sector. Iedere dag leer je iets bij en word je meer en meer een expert in eigen vakgebied.

Just do it. Niet te veel blabla, maar gewoon vooruit gaan. Eenvoud en effici‰ntie zijn onze pijlers. In een warm team streven we hier iedere dag naar.";"We geven graag een korte samenvatting van wat jullie kunnen verwachten. Meer informatie kan verkregen worden tijdens de online stagemarkt. Op dat moment zal je je vragen kunnen stellen aan ‚‚n van onze werknemers.

Front end developer: 
- Werking van de website voorzien (Producten op de website plaatsen en afbeeldingen koppelen wordt bij ons uitgevoerd door onze webmaster en het team merchandising.)
- Templates voorzien (Hoe de website eruit ziet.)
- Logica voorzien als de klant iets nieuw wil (Nieuwe toepassingen, bvb shop by color)
- Design 
- ... 

Back end developer:
Als back end developer voorzie je de interfaces, met bijvoorbeeld betalingsproviders, trustpilot, BackOffice, enzovoort.

Binnen Nayan maken we gebruik  van
- HTML
- JavaScript
- Vue.js + vuex --> progressive JavaScript framework
- SCSS/SASS --> CSS preprocessor


Front-end web development is client-sided development (wat de klant kan zien of mee interageren op een website) door gebruik te maken van HTML, CSS en JavaScript om zo een werkend geheel te voorzien. 
En dit voor zowel mobile als desktop (cross-platform en cross-device). - Jonah, Front end developer @Nayan


"
